ID,Name,ICAO,IATA,Latitude,Longitude,State,Region,Code,LocationTypeID
1,Aayk,AAYK,NULL,-13.88333333,-141.51666666,QLD,NULL,NULL,1
2,Aberfoyle,YABF,NULL,-21.65000000,-145.25000000,QLD,NULL,NULL,1
3,Abingdon Downs,YABI,NULL,-17.60833333,-143.17916666,QLD,NULL,NULL,1
4,Acton,ACTN,NULL,-25.45000000,-145.43333333,QLD,NULL,NULL,1
5,Adavale,YADA,NULL,-25.88527777,-144.56722222,QLD,NULL,NULL,1
6,Adelaide (lic),YPAD,NULL,-34.93527777,-138.51888888,QLD,NULL,NULL,1
7,Adels Grove,YALG,NULL,-18.70000000,-138.53333333,QLD,NULL,NULL,1
8,Agnes Water,YAWT,NULL,-24.20000000,-151.88333333,QLD,NULL,NULL,1
9,Agnew,AGNW,NULL,-12.13333333,-142.13333333,QLD,NULL,NULL,1
10,Alaric,ALAC,NULL,-26.03333333,-144.06666666,QLD,NULL,NULL,1
11,Albeni,ALBI,NULL,-24.58333333,-147.06666666,QLD,NULL,NULL,1
12,Albilbah,YALH,NULL,-24.70000000,-144.28333333,QLD,NULL,NULL,1
13,Albro,ALBO,NULL,-22.70000000,-146.58333333,QLD,NULL,NULL,1
14,Alcala,ALCA,NULL,-19.75000000,-140.58333333,QLD,NULL,NULL,1
15,Alderly,YALY,NULL,-22.48333333,-139.63333333,QLD,NULL,NULL,1
16,Alexandria Homestead,ALEA,NULL,-19.06666666,-136.70000000,QLD,NULL,NULL,1
17,Alexandria Station,YALX,NULL,-19.13333333,-136.76666666,QLD,NULL,NULL,1
18,Alice Springs,YBAS,NULL,-23.80111111,-133.90027777,QLD,NULL,NULL,1
19,Alinya,ALIA,NULL,-22.38333333,-146.56666666,QLD,NULL,NULL,1
20,Allambie,ALLE,NULL,-26.93333333,-145.43333333,QLD,NULL,NULL,1
21,Almaden,ALMN,NULL,-17.35000000,-144.61666666,QLD,NULL,NULL,1
22,Almora,ALMA,NULL,-18.30000000,-139.26666666,QLD,NULL,NULL,1
23,Alpha (lic),YAPH,NULL,-23.63555555,-146.58472222,QLD,NULL,NULL,1
24,Alroy Downs,YALD,NULL,-19.28333333,-136.08333333,QLD,NULL,NULL,1
25,Amberley,YAMB,NULL,-27.63472222,-152.70166666,QLD,NULL,NULL,1
26,Amelia Downs,AMES,NULL,-19.61666666,-145.43333333,QLD,NULL,NULL,1
27,Anglefield,YMRG1,NULL,-26.25000000,-151.93333333,QLD,NULL,NULL,1
28,Answer Downs,YAND,NULL,-21.66666666,-140.98333333,QLD,NULL,NULL,1
29,Anthony Lagoon,YANL,NULL,-18.01666666,-135.53333333,QLD,NULL,NULL,1
30,Antion Downs,ANTS,NULL,-20.35000000,-140.95000000,QLD,NULL,NULL,1
31,Aramac,YAMC,NULL,-22.96666666,-145.23472222,QLD,NULL,NULL,1
32,Arcadia,YACI,NULL,-25.20000000,-148.68333333,QLD,NULL,NULL,1
33,Archer River,YARC,NULL,-13.44555555,-142.93444444,QLD,NULL,NULL,1
34,Archerfield,YBAF,NULL,-27.56722222,-153.00138888,QLD,NULL,NULL,1
35,Ardmore,YAOR,NULL,-21.65000000,-139.18333333,QLD,NULL,NULL,1
36,Ardroy,ARDY,NULL,-27.38333333,-147.10194444,QLD,NULL,NULL,1
37,Argadargada,YARD,NULL,-21.66666666,-136.66666666,QLD,NULL,NULL,1
38,Arizona,YARI,NULL,-19.55000000,-141.38333333,QLD,NULL,NULL,1
39,Armidale,YARM,NULL,-30.51861111,-15.61666666,QLD,NULL,NULL,1
40,Armoobilla,ARMA,NULL,-26.90000000,-145.13333333,QLD,NULL,NULL,1
41,Armraynald,YAML,NULL,-17.96666666,-139.76666666,QLD,NULL,NULL,1
42,Arno Homestead,YANO,NULL,-24.73333333,-143.71666666,QLD,NULL,NULL,1
43,Arrabury,YARY,NULL,-26.70000000,-141.05000000,QLD,NULL,NULL,1
44,Ashling,ASHG,NULL,-27.35000000,-147.25138888,QLD,NULL,NULL,1
45,Ashover,ASHR,NULL,-21.45194444,-139.76750000,QLD,NULL,NULL,1
46,Atherton,YATN,NULL,-17.25194444,-145.50250000,QLD,NULL,NULL,1
47,Attica,ATTA,NULL,-25.25000000,-147.40000000,QLD,NULL,NULL,1
48,Augathella,YAUA,NULL,-25.75083333,-146.58388888,QLD,NULL,NULL,1
49,Augustus Downs,YAGD,NULL,-18.50777777,-139.88472222,QLD,NULL,NULL,1
50,Aurukun,YAUR,NULL,-13.35055555,-141.71722222,QLD,NULL,NULL,1
51,Austral Downs,YAUS,NULL,-20.48444444,-137.75250000,QLD,NULL,NULL,1
52,Autumnvale,AUTE,NULL,-27.76666666,-143.96666666,QLD,NULL,NULL,1
53,Avalon,AVAN1,NULL,-19.01722222,-144.45138888,QLD,NULL,NULL,1
54,Avington,AVIN,NULL,-24.08333333,-144.98333333,QLD,NULL,NULL,1
55,Avon Downs (cns Area),AVOS,NULL,-21.85000000,-147.23333333,QLD,NULL,NULL,1
56,Avon Downs (mt Isa Area),YAVD,NULL,-20.03333333,-137.51666666,QLD,NULL,NULL,1
57,Ayr,YAYR,NULL,-19.58361111,-147.31888888,QLD,NULL,NULL,1
58,Baambar Plains,BAAS,NULL,-23.98472222,-148.40250000,QLD,NULL,NULL,1
59,Babbiloora,BABA,NULL,-25.20000000,-147.13333333,QLD,NULL,NULL,1
60,Badalia,BADA,NULL,-22.91666666,-139.50000000,QLD,NULL,NULL,1
61,Badu Island,YBAU,NULL,-10.15000000,-142.16805555,QLD,NULL,NULL,1
62,Baldy Junction,YHOL1,NULL,-14.11666666,-142.61666666,QLD,NULL,NULL,1
63,Ballera,YLLE,NULL,-27.40138888,-141.80138888,QLD,NULL,NULL,1
64,Ballina (lic),YBNA,NULL,-28.83333333,-153.55194444,QLD,NULL,NULL,1
65,Northern Peninsula Airport,YNPE,NULL,-10.95000000,-142.45166666,QLD,NULL,NULL,1
66,Bando,BANO,NULL,-27.30000000,-145.85000000,QLD,NULL,NULL,1
67,Bankstown Nsw (lic),YSBK,NULL,-33.91805555,-150.98416666,QLD,NULL,NULL,1
68,Bannockburn,BANN,NULL,-21.80000000,-145.08333333,QLD,NULL,NULL,1
69,Baralaba,YBAB,NULL,-24.19777777,-149.83527777,QLD,NULL,NULL,1
70,Barcaldine (lic),YBAR,NULL,-23.55250000,-145.30111111,QLD,NULL,NULL,1
71,Barenya,YBEY,NULL,-21.61666666,-144.16666666,QLD,NULL,NULL,1
72,Barkly Downs,YBAW,NULL,-20.48333333,-138.46666666,QLD,NULL,NULL,1
73,Barkly Wayside Inn,YBKS,NULL,-19.71666666,-135.81666666,QLD,NULL,NULL,1
74,Barngo,BARO,NULL,-25.03333333,-147.33333333,QLD,NULL,NULL,1
75,Barwhinnock,BARK,NULL,-25.46777777,-145.90083333,QLD,NULL,NULL,1
76,Batavia Downs,YBTV,NULL,-12.66500000,-142.68222222,QLD,NULL,NULL,1
77,Bathurst Head,YLFD1,NULL,-14.48333333,-144.23333333,QLD,NULL,NULL,1
78,Battery,YBTS,NULL,-19.43333333,-145.85000000,QLD,NULL,NULL,1
79,Battle Camp,YBTP,NULL,-15.28111111,-144.70916666,QLD,NULL,NULL,1
80,Bauhinia Downs,YBAH,NULL,-16.30000000,-135.46666666,QLD,NULL,NULL,1
81,Baykool,BAYL,NULL,-25.61666666,-145.63333333,QLD,NULL,NULL,1
82,Bayrick,BAYK,NULL,-25.46805555,-146.01666666,QLD,NULL,NULL,1
83,Bayswater,YBYW,NULL,-25.46750000,-145.61583333,QLD,NULL,NULL,1
84,Beagle,BEAE,NULL,-13.08333333,-141.81666666,QLD,NULL,NULL,1
85,Beatrice Downs,YBTC,NULL,-24.18333333,-142.88333333,QLD,NULL,NULL,1
86,Bedourie (lic),YBIE,NULL,-24.33555555,-139.45166666,QLD,NULL,NULL,1
87,Beechal,BEEL,NULL,-27.13333333,-144.75000000,QLD,NULL,NULL,1
88,Beenboona,BEEA,NULL,-21.86666666,-146.70000000,QLD,NULL,NULL,1
89,Beenfield,BEED,NULL,-20.96666666,-141.28333333,QLD,NULL,NULL,1
90,Bees Bike,BEEE,NULL,-15.68333333,-145.21666666,QLD,NULL,NULL,1
91,Bellalie,YBLH,NULL,-27.03333333,-142.95000000,QLD,NULL,NULL,1
92,Bellevue,YBVE,NULL,-16.52138888,-144.19416666,QLD,NULL,NULL,1
93,Bellfield,BELD,NULL,-19.38333333,-143.15000000,QLD,NULL,NULL,1
94,Benmara,YBNM,NULL,-17.92000000,-136.90222222,QLD,NULL,NULL,1
95,Bentinck Island,YBTK,NULL,-17.08333333,-139.56750000,QLD,NULL,NULL,1
96,Berellam,BERM,NULL,-26.68333333,-143.06666666,QLD,NULL,NULL,1
97,Betoota,YBEO,NULL,-25.68527777,-140.73388888,QLD,NULL,NULL,1
98,Beverley Hills,BEVS,NULL,-18.76666666,-143.90000000,QLD,NULL,NULL,1
99,Bierbank,BIEK,NULL,-26.76666666,-145.10000000,QLD,NULL,NULL,1
100,Big Creek,BIGK,NULL,-27.35000000,-144.81666666,QLD,NULL,NULL,1
101,Big Rush,BIGH,NULL,-19.45000000,-144.76666666,QLD,NULL,NULL,1
102,Biggenden,YBIN,NULL,-25.51805555,-152.05000000,QLD,NULL,NULL,1
103,Billabong,BILG,NULL,-24.03333333,-150.93333333,QLD,NULL,NULL,1
104,Billy Lagoon,BILN,NULL,-12.51666666,-142.38333333,QLD,NULL,NULL,1
105,Bimbah East,BIMT,NULL,-22.33333333,-146.26666666,QLD,NULL,NULL,1
106,Bimerah,BIMH,NULL,-24.20000000,-143.53333333,QLD,NULL,NULL,1
107,Birdsville (lic),YBDV,NULL,-25.88555555,-139.33583333,QLD,NULL,NULL,1
108,Birri Beach,YBBH,NULL,-16.46666666,-139.28333333,QLD,NULL,NULL,1
109,Bizant,YBIZ,NULL,-14.74500000,-144.12111111,QLD,NULL,NULL,1
110,Black Downs,YBKD,NULL,-17.03333333,-143.91666666,QLD,NULL,NULL,1
111,Black Mountain,BLAN,NULL,-25.43333333,-145.13333333,QLD,NULL,NULL,1
112,Blackall (lic),YBCK,NULL,-24.41833333,-145.43388888,QLD,NULL,NULL,1
113,Blackbraes,BLAS,NULL,-19.55000000,-144.20000000,QLD,NULL,NULL,1
114,Blackwater (lic),YBTR,NULL,-23.60055555,-148.80111111,QLD,NULL,NULL,1
115,Blair-Athol,BLAL,NULL,-22.58333333,-139.96666666,QLD,NULL,NULL,1
116,Bloodwood/Wangunda Pl,BLOD,NULL,-18.91694444,-138.86861111,QLD,NULL,NULL,1
117,Bloomfield River,YBMD,NULL,-15.87777777,-145.33722222,QLD,NULL,NULL,1
118,Blue Hole,BLUE,NULL,-18.08333333,-138.93333333,QLD,NULL,NULL,1
119,Blue Lake,BLUS,NULL,-28.85000000,-145.08333333,QLD,NULL,NULL,1
120,Blue Range,BLUG,NULL,-19.13333333,-145.43333333,QLD,NULL,NULL,1
121,Blue Valley,BLUY,NULL,-20.41666666,-147.36666666,QLD,NULL,NULL,1
122,Bluff Downs,BLUN,NULL,-19.68333333,-145.48333333,QLD,NULL,NULL,1
123,Boanbirra Station,BOAN,NULL,-28.40000000,-147.05000000,QLD,NULL,NULL,1
124,Boatman,YBOT,NULL,-27.26722222,-146.90027777,QLD,NULL,NULL,1
125,Bodalla,YBOD,NULL,-26.30000000,-143.38333333,QLD,NULL,NULL,1
126,Bodgewong,BODG,NULL,-23.93333333,-143.51666666,QLD,NULL,NULL,1
127,Bogarella,BOGA,NULL,-25.36666666,-147.10000000,QLD,NULL,NULL,1
128,Boigu Island,YBOI,NULL,-9.23472222,-142.21694444,QLD,NULL,NULL,1
129,Bollon,YBLL,NULL,-28.05138888,-147.48333333,QLD,NULL,NULL,1
130,Bolwarra,YBWR,NULL,-17.38388888,-144.16722222,QLD,NULL,NULL,1
131,Boodgherrie,BOOE,NULL,-28.56666666,-143.96666666,QLD,NULL,NULL,1
132,Booka,BOOA,NULL,-25.86916666,-147.01833333,QLD,NULL,NULL,1
133,Boomarra,BOOM,NULL,-19.56888888,-140.36722222,QLD,NULL,NULL,1
134,Boomerang,BOOG,NULL,-18.21666666,-144.86666666,QLD,NULL,NULL,1
135,Boonamerrie,BOOC,NULL,-23.68333333,-143.61666666,QLD,NULL,NULL,1
136,Boonderoo,BOOO,NULL,-20.35000000,-144.33333333,QLD,NULL,NULL,1
137,Boondoon Bore,BOON,NULL,-25.70000000,-145.13333333,QLD,NULL,NULL,1
138,Boorara,BOOR,NULL,-28.66666666,-144.38333333,QLD,NULL,NULL,1
139,Boot Hill,BOOL,NULL,-23.11666666,-141.33333333,QLD,NULL,NULL,1
140,Boothulla,BOOU,NULL,-26.60138888,-145.38500000,QLD,NULL,NULL,1
141,Boran,BORN,NULL,-27.20000000,-144.58333333,QLD,NULL,NULL,1
142,Borroloola (lic),YBRL,NULL,-16.06805555,-136.30027777,QLD,NULL,NULL,1
143,Boulder Opal,BOUL,NULL,-23.78333333,-142.53333333,QLD,NULL,NULL,1
144,Boulia (lic),YBOU,NULL,-22.90222222,-139.90000000,QLD,NULL,NULL,1
145,Bourke (lic),YBKE,NULL,-30.03416666,-145.95027777,QLD,NULL,NULL,1
146,Bowen,YBWN,NULL,-20.01694444,-148.20250000,QLD,NULL,NULL,1
147,Bowie,BOWE,NULL,-21.80000000,-145.93333333,QLD,NULL,NULL,1
148,Bowthorn,YBWT,NULL,-18.05000000,-138.26666666,QLD,NULL,NULL,1
149,Brackenburgh,BRAH,NULL,-22.16666666,-141.33333333,QLD,NULL,NULL,1
150,Braeside,BRAE,NULL,-21.63333333,-141.58333333,QLD,NULL,NULL,1
151,Brewarrina (lic),YBRW,NULL,-29.96777777,-146.81666666,QLD,NULL,NULL,1
152,Brigalow Downs,BRIS,NULL,-28.55000000,-147.00000000,QLD,NULL,NULL,1
153,Brightlands,YBTX,NULL,-21.08333333,-140.25000000,QLD,NULL,NULL,1
154,Brighton Downs,YBTD,NULL,-23.35000000,-141.53333333,QLD,NULL,NULL,1
155,Brinard,BRID,NULL,-19.85000000,-140.93333333,QLD,NULL,NULL,1
156,Brisbane,YBBN,NULL,-27.38333333,-153.11694444,QLD,NULL,NULL,1
157,Britannia,BRIA,NULL,-20.33333333,-146.38333333,QLD,NULL,NULL,1
158,Broadleigh Downs,BROS,NULL,-20.90000000,-146.20000000,QLD,NULL,NULL,1
159,Broken Hill (lic),YBHI,NULL,-32.00027777,-141.46750000,QLD,NULL,NULL,1
160,Broken River,BROR,NULL,-19.48333333,-144.81666666,QLD,NULL,NULL,1
161,Bronte,BROE,NULL,-24.73333333,-145.31666666,QLD,NULL,NULL,1
162,Brunette Downs,YBRU,NULL,-18.65000000,-135.93333333,QLD,NULL,NULL,1
163,Bruslee,BRUE,NULL,-20.86666666,-146.56666666,QLD,NULL,NULL,1
164,Buckingham Downs,YBUH,NULL,-22.06666666,-139.75000000,QLD,NULL,NULL,1
165,Budgerygar,YBGT,NULL,-25.36666666,-143.78333333,QLD,NULL,NULL,1
166,Bulgroo,BULO,NULL,-25.78333333,-143.70000000,QLD,NULL,NULL,1
167,Bulimba,YBWM,NULL,-16.86916666,-143.48333333,QLD,NULL,NULL,1
168,Bull Creek,BULK,NULL,-21.23333333,-141.16666666,QLD,NULL,NULL,1
169,Bulleringa,YBUX,NULL,-17.65000000,-143.80000000,QLD,NULL,NULL,1
170,Bulliwallah,YBLW,NULL,-21.60000000,-146.61666666,QLD,NULL,NULL,1
171,Bulloo Downs Homestead,YBUO,NULL,-28.53333333,-142.95000000,QLD,NULL,NULL,1
172,Bunda Bunda,BUNA,NULL,-20.08333333,-142.20000000,QLD,NULL,NULL,1
173,Bundaberg (lic),YBUD,NULL,-24.90055555,-152.31694444,QLD,NULL,NULL,1
174,Bundarra,YBUA,NULL,-21.96666666,-148.53333333,QLD,NULL,NULL,1
175,Bundella,BUNL,NULL,-21.86666666,-144.13333333,QLD,NULL,NULL,1
176,Bundoran,BUNN,NULL,-20.78333333,-142.50000000,QLD,NULL,NULL,1
177,Bunginderry,BUNY,NULL,-26.38333333,-143.90000000,QLD,NULL,NULL,1
178,Bungobine,BUNE,NULL,-21.33333333,-147.31666666,QLD,NULL,NULL,1
179,Burdekin Wilderness Lodge,YBWI,NULL,-20.58527777,-147.08527777,QLD,NULL,NULL,1
180,Burke & Wills (roadhouse),YBKW,NULL,-19.21666666,-140.36666666,QLD,NULL,NULL,1
181,Burketown,YBKT,NULL,-17.73583333,-139.53361111,QLD,NULL,NULL,1
182,Burkobulla,BURA,NULL,-26.10000000,-143.16666666,QLD,NULL,NULL,1
183,Burleigh,BURH,NULL,-20.26666666,-143.10000000,QLD,NULL,NULL,1
184,Burlington,BURN,NULL,-17.81666666,-144.40000000,QLD,NULL,NULL,1
185,Bushy Park,YBHK,NULL,-21.26666666,-139.71666666,QLD,NULL,NULL,1
186,Buthana,BUTA,NULL,-27.03333333,-144.83333333,QLD,NULL,NULL,1
187,Byrginna,BYRN,NULL,-25.56666666,-146.83333333,QLD,NULL,NULL,1
188,Cabana,CABA,NULL,-18.03333333,-144.03333333,QLD,NULL,NULL,1
189,Caboolture,YCAB,NULL,-27.08333333,-152.98333333,QLD,NULL,NULL,1
190,Cairns (lic),YBCS,NULL,-16.88388888,-145.75083333,QLD,NULL,NULL,1
191,Cairns Homestead,CAIS,NULL,-26.21666666,-145.56666666,QLD,NULL,NULL,1
192,Caiwarra,CAIA,NULL,-28.68527777,-144.75250000,QLD,NULL,NULL,1
193,Caldervale,YCDV,NULL,-25.10138888,-145.83333333,QLD,NULL,NULL,1
194,Callistemon,CALN,NULL,-24.08333333,-147.45000000,QLD,NULL,NULL,1
195,Caloundra,YCDR,NULL,-26.80000000,-153.10000000,QLD,NULL,NULL,1
196,Calton Hills,YCTS,NULL,-20.13333333,-139.41666666,QLD,NULL,NULL,1
197,Calvert Hills,YCVH,NULL,-17.21666666,-137.35000000,QLD,NULL,NULL,1
198,Cambeela,CAMA,NULL,-22.86666666,-141.86666666,QLD,NULL,NULL,1
199,Camel Creek,YCMK,NULL,-18.85000000,-145.46666666,QLD,NULL,NULL,1
200,Camooweal,YCMW,NULL,-19.90194444,-138.11805555,QLD,NULL,NULL,1
201,Camp Wridgeway,CAMY,NULL,-17.48333333,-138.10000000,QLD,NULL,NULL,1
202,Canary,CANY,NULL,-23.23527777,-140.35166666,QLD,NULL,NULL,1
203,Canaway Downs,CANS,NULL,-25.98500000,-143.91777777,QLD,NULL,NULL,1
204,Canegrass,CANA,NULL,-26.15000000,-145.33333333,QLD,NULL,NULL,1
205,Cannibal Creek,CANK,NULL,-16.23333333,-144.43333333,QLD,NULL,NULL,1
206,Cannington Mine,YTEE,NULL,-21.81916666,-140.86916666,QLD,NULL,NULL,1
207,Cannington Station,YCAM,NULL,-21.86805555,-140.90000000,QLD,NULL,NULL,1
208,Canobie,YCBE,NULL,-19.46666666,-140.91666666,QLD,NULL,NULL,1
209,Cape Flattery,YCFL,NULL,-14.97222222,-145.31750000,QLD,NULL,NULL,1
210,Cape Keppel,CAPL,NULL,-23.46666666,-151.05111111,QLD,NULL,NULL,1
211,Carandotta,YCDT,NULL,-21.96666666,-138.61666666,QLD,NULL,NULL,1
212,Cardwell,YCDW,NULL,-18.17944444,-145.95472222,QLD,NULL,NULL,1
213,Cargoon,CARN1,NULL,-20.01666666,-144.91666666,QLD,NULL,NULL,1
214,Carlo,CARO,NULL,-23.41666666,-138.66666666,QLD,NULL,NULL,1
215,Carmichael,CARL,NULL,-21.96666666,-146.08333333,QLD,NULL,NULL,1
216,Carnarvon,CARN,NULL,-24.80000000,-147.73333333,QLD,NULL,NULL,1
217,Carodon,CARD,NULL,-21.38333333,-141.66666666,QLD,NULL,NULL,1
218,Carolina,CARA,NULL,-17.46666666,-137.91666666,QLD,NULL,NULL,1
219,Carpentaria Downs,YCPN,NULL,-18.71666666,-144.31666666,QLD,NULL,NULL,1
220,Carraward,CARD1,NULL,-22.25000000,-143.65000000,QLD,NULL,NULL,1
221,Carrisbrooke,CARE,NULL,-22.65250000,-142.50250000,QLD,NULL,NULL,1
222,Cassilis,YCSI,NULL,-21.26666666,-143.01666666,QLD,NULL,NULL,1
223,Catumnal,CATL,NULL,-21.88333333,-143.96666666,QLD,NULL,NULL,1
224,Century Mine,YCNY,NULL,-18.75055555,-138.70111111,QLD,NULL,NULL,1
225,Charleville (lic),YBCV,NULL,-26.40222222,-146.25222222,QLD,NULL,NULL,1
226,Charlotte Plains,YCHA1,NULL,-20.40000000,-143.88333333,QLD,NULL,NULL,1
227,Charters Towers,YCHT,NULL,-20.03500000,-146.26777777,QLD,NULL,NULL,1
228,Chatham,CHAM,NULL,-25.30000000,-146.50000000,QLD,NULL,NULL,1
229,Chatsworth,YCTH,NULL,-21.96666666,-140.30000000,QLD,NULL,NULL,1
230,Cheepie,YCPI,NULL,-26.61666666,-145.00000000,QLD,NULL,NULL,1
231,Cheshire,CHEE,NULL,-24.26611111,-146.44722222,QLD,NULL,NULL,1
232,Cheviot Hills,YCHS1,NULL,-19.65000000,-144.15000000,QLD,NULL,NULL,1
233,Childers,YCDS,NULL,-25.26666666,-152.35000000,QLD,NULL,NULL,1
234,Chillagoe,YCGO,NULL,-17.13500000,-144.51861111,QLD,NULL,NULL,1
235,Chinchilla (lic),YCCA,NULL,-26.76805555,-150.61666666,QLD,NULL,NULL,1
236,Chudleigh Park,YCHS,NULL,-19.65000000,-144.15000000,QLD,NULL,NULL,1
237,Clarke Hills,CLAS,NULL,-19.76666666,-144.53333333,QLD,NULL,NULL,1
238,Claverton,CLAN,NULL,-27.45000000,-145.90000000,QLD,NULL,NULL,1
239,Clermont,YCMT,NULL,-22.76777777,-147.61722222,QLD,NULL,NULL,1
240,Cliffdale,CLIE,NULL,-17.41666666,-138.58333333,QLD,NULL,NULL,1
241,Clonagh,YCGH,NULL,-20.13333333,-140.68333333,QLD,NULL,NULL,1
242,Cloncurry,YCCY,NULL,-20.66694444,-140.50083333,QLD,NULL,NULL,1
243,Cluny,YUNY,NULL,-24.51666666,-139.61666666,QLD,NULL,NULL,1
244,Coconut,COCT,NULL,-12.95000000,-141.61666666,QLD,NULL,NULL,1
245,Coconut Island,YCCT,NULL,-10.05000000,-143.06722222,QLD,NULL,NULL,1
246,Coen (lic),YCOE,NULL,-13.75194444,-143.11666666,QLD,NULL,NULL,1
247,Coen Township,YCTP,NULL,-13.96666666,-143.18333333,QLD,NULL,NULL,1
248,Coffs Harbour (lic),YCFS,NULL,-30.31722222,-153.11666666,QLD,NULL,NULL,1
249,Colac (cv Area),COLC,NULL,-26.50000000,-144.58333333,QLD,NULL,NULL,1
250,Collarenebri (lic),YCBR,NULL,-29.51750000,-148.56916666,QLD,NULL,NULL,1
251,Collinsville,YCSV,NULL,-20.58555555,-147.85166666,QLD,NULL,NULL,1
252,Colston,COLN,NULL,-22.78333333,-142.71666666,QLD,NULL,NULL,1
253,Colwell,COLL,NULL,-21.40000000,-141.13333333,QLD,NULL,NULL,1
254,Combo,COMO,NULL,-28.83333333,-147.41666666,QLD,NULL,NULL,1
255,Congie,CONE,NULL,-26.86666666,-143.60000000,QLD,NULL,NULL,1
256,Coniston,CONN,NULL,-27.35000000,-146.75000000,QLD,NULL,NULL,1
257,Conjuboy,YCJU,NULL,-18.68333333,-144.75000000,QLD,NULL,NULL,1
258,Connemara,YCMA,NULL,-24.21666666,-142.26777777,QLD,NULL,NULL,1
259,Consuelo,YCSL,NULL,-24.63527777,-148.46777777,QLD,NULL,NULL,1
260,Cooktown (lic),YCKN,NULL,-15.43527777,-145.18361111,QLD,NULL,NULL,1
261,Coolangatta (lic),YBCG,NULL,-28.15250000,-153.50055555,QLD,NULL,NULL,1
262,Coolatah,COOH1,NULL,-25.90000000,-145.53333333,QLD,NULL,NULL,1
263,Coolatai,COOI1,NULL,-24.90000000,-145.50000000,QLD,NULL,NULL,1
264,Coolibah,YCLI,NULL,-26.33388888,-142.56888888,QLD,NULL,NULL,1
265,Coolullah,YCLH,NULL,-19.81666666,-140.16666666,QLD,NULL,NULL,1
266,Coomburrah,COOH,NULL,-28.56666666,-147.00000000,QLD,NULL,NULL,1
267,Coonabarabran,YCBB,NULL,-31.33333333,-149.26666666,QLD,NULL,NULL,1
268,Coorabulka,COOA,NULL,-23.71861111,-140.30138888,QLD,NULL,NULL,1
269,Cootabynia,COOI,NULL,-25.13333333,-145.18333333,QLD,NULL,NULL,1
270,Coralie,CORE,NULL,-18.30000000,-141.75000000,QLD,NULL,NULL,1
271,Cordillo Downs,YCOD,NULL,-26.75000000,-140.63333333,QLD,NULL,NULL,1
272,Corinda,YCND,NULL,-22.05000000,-145.16666666,QLD,NULL,NULL,1
273,Cork,CORK,NULL,-22.15000000,-142.05000000,QLD,NULL,NULL,1
274,Corowa,YCOR,NULL,-35.98527777,-146.35111111,QLD,NULL,NULL,1
275,Corowa Downs,YCWN,NULL,-26.46666666,-143.35000000,QLD,NULL,NULL,1
276,Cosmos,COSS,NULL,-22.63333333,-148.63333333,QLD,NULL,NULL,1
277,Cow Bay,YCBY1,NULL,-16.23111111,-145.42527777,QLD,NULL,NULL,1
278,Cowan Downs,YCOW,NULL,-18.96666666,-140.53333333,QLD,NULL,NULL,1
279,Cowarie,YCWI,NULL,-27.70000000,-138.33333333,QLD,NULL,NULL,1
280,Cowley,COWY,NULL,-26.90000000,-144.83333333,QLD,NULL,NULL,1
281,Craigs Pocket,YCIP,NULL,-18.56666666,-145.01666666,QLD,NULL,NULL,1
282,Craven’s Peak,YCVK,NULL,-23.32583333,-138.58944444,QLD,NULL,NULL,1
283,Cremorne,CREE,NULL,-23.03333333,-146.98333333,QLD,NULL,NULL,1
284,Crocodile,CROE,NULL,-15.71666666,-144.66666666,QLD,NULL,NULL,1
285,Croydon,YCRY,NULL,-18.22027777,-142.25611111,QLD,NULL,NULL,1
286,Croydon,CRON,NULL,-22.46777777,-149.15083333,QLD,NULL,NULL,1
287,Crystalbrook,YCYT,NULL,-17.38333333,-144.45000000,QLD,NULL,NULL,1
288,Crystalvale,YCYV,NULL,-14.08916666,-143.00333333,QLD,NULL,NULL,1
289,Cuba,CUBA,NULL,-19.90000000,-145.06666666,QLD,NULL,NULL,1
290,Cubbaroo,CUBO,NULL,-20.10000000,-140.58333333,QLD,NULL,NULL,1
291,Cuckadoo,CUCO,NULL,-21.98333333,-140.93333333,QLD,NULL,NULL,1
292,Cuddapan,YCUD,NULL,-25.58444444,-141.50138888,QLD,NULL,NULL,1
293,Cunnamulla (lic),YCMU,NULL,-28.01888888,-145.61750000,QLD,NULL,NULL,1
294,Cunno,CUNO,NULL,-25.15000000,-147.03333333,QLD,NULL,NULL,1
295,Currawilla Homestead,YCUW,NULL,-25.15000000,-141.35000000,QLD,NULL,NULL,1
296,Currawinya,CURA,NULL,-28.83583333,-144.48444444,QLD,NULL,NULL,1
297,Dagworth (cns Area),DAGH,NULL,-17.93333333,-143.58333333,QLD,NULL,NULL,1
298,Dagworth (MA Area),YDAG,NULL,-21.85000000,-142.16666666,QLD,NULL,NULL,1
299,Daintree Station,YDNT,NULL,-21.21666666,-143.33333333,QLD,NULL,NULL,1
300,Dajarra,YDAJ,NULL,-21.70138888,-139.53333333,QLD,NULL,NULL,1
301,Dalby,YDAY,NULL,-27.15083333,-151.26666666,QLD,NULL,NULL,1
302,Dalgonally,DALY,NULL,-20.11722222,-141.30250000,QLD,NULL,NULL,1
303,Dalkeith,DALH,NULL,-20.41666666,-143.91666666,QLD,NULL,NULL,1
304,Darnley Island,YDNI,NULL,-9.57888888,-143.77833333,QLD,NULL,NULL,1
305,Darter Grey,DARY,NULL,-27.66666666,-139.91666666,QLD,NULL,NULL,1
306,Darwin (lic),YPDN,NULL,-12.40250000,-130.86833333,QLD,NULL,NULL,1
307,Davenport Downs,YDPD,NULL,-24.15000000,-141.10138888,QLD,NULL,NULL,1
308,Delta Downs,YDLT,NULL,-16.98472222,-141.31666666,QLD,NULL,NULL,1
309,Devoncourt,YDEV,NULL,-21.21666666,-140.23333333,QLD,NULL,NULL,1
310,Diamantina Lakes,DIAS,NULL,-23.76666666,-141.13333333,QLD,NULL,NULL,1
311,Diamond Downs,DIAN,NULL,-24.53333333,-143.95000000,QLD,NULL,NULL,1
312,Dimbulah,YDIM,NULL,-17.11666666,-145.10000000,QLD,NULL,NULL,1
313,Dinah Island,DIND,NULL,-16.37805555,-141.50027777,QLD,NULL,NULL,1
314,Dirranbandi,YDBI,NULL,-28.58472222,-148.21666666,QLD,NULL,NULL,1
315,Dixie,YDIX,NULL,-15.11805555,-143.32666666,QLD,NULL,NULL,1
316,Dongon Plains,DONS,NULL,-28.80000000,-147.48333333,QLD,NULL,NULL,1
317,Donnington Airpark,YDOP,NULL,-19.60194444,-146.83444444,QLD,NULL,NULL,1
318,Donors Hill,YDOO,NULL,-18.71333333,-140.55750000,QLD,NULL,NULL,1
319,Dooloogarah,YDLG,NULL,-24.88333333,-147.79444444,QLD,NULL,NULL,1
320,Doomadgee,YDMG,NULL,-17.93444444,-138.81750000,QLD,NULL,NULL,1
321,Doongmabulla,YDNB,NULL,-22.06666666,-146.23333333,QLD,NULL,NULL,1
322,Dorunda,YDOR,NULL,-16.55138888,-141.80138888,QLD,NULL,NULL,1
323,Dosey,DOSY,NULL,-19.58333333,-144.65000000,QLD,NULL,NULL,1
324,Dotswood,DOTD,NULL,-19.63333333,-146.28333333,QLD,NULL,NULL,1
325,Double Lagoon,DOUN,NULL,-17.28333333,-141.20000000,QLD,NULL,NULL,1
326,Drumduff,YDDF,NULL,-16.05305555,-143.02361111,QLD,NULL,NULL,1
327,Duaringa,YDRG,NULL,-23.73388888,-149.65222222,QLD,NULL,NULL,1
328,Dubbo,YSDU,NULL,-32.21666666,-148.56805555,QLD,NULL,NULL,1
329,Duchess,DUCS,NULL,-21.50083333,-139.86861111,QLD,NULL,NULL,1
330,Dugald River,DUGR,NULL,-20.26666666,-140.18333333,QLD,NULL,NULL,1
331,Dullingari,YDGI,NULL,-28.13333333,-140.86916666,QLD,NULL,NULL,1
332,Dunbar,YDBR,NULL,-16.05750000,-142.40000000,QLD,NULL,NULL,1
333,Dundee (ma Area),DUNE,NULL,-21.36666666,-142.76666666,QLD,NULL,NULL,1
334,Dundee Park (cv Area),YDDP,NULL,-27.31666666,-147.00000000,QLD,NULL,NULL,1
335,Dunk Island,YDKI,NULL,-17.93472222,-146.13444444,QLD,NULL,NULL,1
336,Durham Downs,YDRH,NULL,-27.06805555,-141.90000000,QLD,NULL,NULL,1
337,Durrie,YDRI,NULL,-25.68361111,-140.21861111,QLD,NULL,NULL,1
338,Dutton River,YCHA,NULL,-20.40000000,-143.88333333,QLD,NULL,NULL,1
339,Dynevor Downs,YDNV,NULL,-28.10000000,-144.35000000,QLD,NULL,NULL,1
340,Dysart (lic),YDYS,NULL,-22.61750000,-148.35222222,QLD,NULL,NULL,1
341,Eec Processing Plant,EECT,NULL,-26.18333333,-142.05000000,QLD,NULL,NULL,1
342,Egera,EGEA,NULL,-20.98333333,-146.10000000,QLD,NULL,NULL,1
343,Eidsvold,YESD,NULL,-25.35000000,-151.11666666,QLD,NULL,NULL,1
344,Eildon Park,EILK,NULL,-23.21666666,-142.40000000,QLD,NULL,NULL,1
345,Einasleigh,YEIN,NULL,-18.50055555,-144.08500000,QLD,NULL,NULL,1
346,Elderslie,YELR1,NULL,-15.13333333,-145.10000000,QLD,NULL,NULL,1
347,Elgin Downs,ELGS,NULL,-22.00000000,-146.91666666,QLD,NULL,NULL,1
348,Ellendale (cs Area),ELLE,NULL,-18.58333333,-144.20000000,QLD,NULL,NULL,1
349,Ellenvale (tl Area),ELLL,NULL,-19.93333333,-144.96666666,QLD,NULL,NULL,1
350,Elmina,ELMA,NULL,-27.41666666,-146.60000000,QLD,NULL,NULL,1
351,Elrose,YESE,NULL,-20.96888888,-141.00111111,QLD,NULL,NULL,1
352,Elvo,ELVO,NULL,-23.33333333,-142.21666666,QLD,NULL,NULL,1
353,Emerald,YEML,NULL,-23.56694444,-148.16888888,QLD,NULL,NULL,1
354,Emmet Downs,EMMS,NULL,-24.71666666,-144.50000000,QLD,NULL,NULL,1
355,Eromanga,YEMG,NULL,-26.70000000,-143.26666666,QLD,NULL,NULL,1
356,Escott,YESC,NULL,-17.71805555,-139.41666666,QLD,NULL,NULL,1
357,Esmeralda,ESMA,NULL,-18.85000000,-142.58333333,QLD,NULL,NULL,1
358,Etta Plains,ETTS,NULL,-19.85000000,-141.46666666,QLD,NULL,NULL,1
359,Eulo,YEUO,NULL,-28.16666666,-145.03472222,QLD,NULL,NULL,1
360,Eurella,YEUL,NULL,-26.61722222,-148.23361111,QLD,NULL,NULL,1
361,Euroka Springs,YEUK,NULL,-19.88333333,-141.48333333,QLD,NULL,NULL,1
362,Eveleigh,EVEH,NULL,-18.25000000,-143.98333333,QLD,NULL,NULL,1
363,Evengy,EVEY,NULL,-24.36666666,-143.18333333,QLD,NULL,NULL,1
364,Eversfield,EVED,NULL,-26.66722222,-147.48527777,QLD,NULL,NULL,1
365,Ewan,EWAN,NULL,-19.11666666,-145.85000000,QLD,NULL,NULL,1
366,Exmoor,EXMR,NULL,-21.01666666,-148.15000000,QLD,NULL,NULL,1
367,Fairlight,YFLT,NULL,-15.77555555,-144.05055555,QLD,NULL,NULL,1
368,Fanning River,FANR,NULL,-19.73333333,-146.43333333,QLD,NULL,NULL,1
369,Fernlee,FERE,NULL,-28.26666666,-147.03333333,QLD,NULL,NULL,1
370,Fine Gold Creek,YFGK,NULL,-16.28333333,-144.30000000,QLD,NULL,NULL,1
371,Fish Creek,FISK,NULL,-16.03333333,-144.18333333,QLD,NULL,NULL,1
372,Fish River,FISR,NULL,-17.08333333,-138.16666666,QLD,NULL,NULL,1
373,Flora Downs,FLOS,NULL,-20.10000000,-138.80000000,QLD,NULL,NULL,1
374,Floraville Downs,FLON,NULL,-18.23333333,-139.86666666,QLD,NULL,NULL,1
375,Florence,CORE1,NULL,-18.30000000,-141.75000000,QLD,NULL,NULL,1
376,Forest Home,FORE,NULL,-18.23333333,-143.03333333,QLD,NULL,NULL,1
377,Forrester,FORR,NULL,-22.95000000,-146.46666666,QLD,NULL,NULL,1
378,Forsayth,YFSA,NULL,-18.58388888,-143.57694444,QLD,NULL,NULL,1
379,Fort Constantine,YFCN,NULL,-20.46666666,-140.60000000,QLD,NULL,NULL,1
380,Fort William,FORM,NULL,-22.45000000,-140.01666666,QLD,NULL,NULL,1
381,Fossilbrooke,FOSE,NULL,-17.81666666,-144.40000000,QLD,NULL,NULL,1
382,Four Mile Bend,YMTD,NULL,-16.05000000,-144.50000000,QLD,NULL,NULL,1
383,Four Mile Creek,FOUK,NULL,-17.85000000,-144.43333333,QLD,NULL,NULL,1
384,Franklin,FRAN,NULL,-22.90000000,-141.61666666,QLD,NULL,NULL,1
385,Fraser Island,WANA1,NULL,-25.45055555,-152.98527777,QLD,NULL,NULL,1
386,Gallipoli,YGLP,NULL,-19.13472222,-137.85250000,QLD,NULL,NULL,1
387,Galway Downs,YGWD,NULL,-25.18333333,-142.66666666,QLD,NULL,NULL,1
388,Gamboola,YGAM,NULL,-16.55138888,-143.66888888,QLD,NULL,NULL,1
389,Gayndah,YGAY,NULL,-25.60250000,-151.61722222,QLD,NULL,NULL,1
390,Gemfields,CABA1,NULL,-18.03333333,-144.03333333,QLD,NULL,NULL,1
391,Georgetown,YGTN,NULL,-18.30083333,-143.51888888,QLD,NULL,NULL,1
392,Georgina Downs,GEOS,NULL,-21.11666666,-137.65000000,QLD,NULL,NULL,1
393,Gereta,GERA,NULL,-20.10111111,-139.80138888,QLD,NULL,NULL,1
394,Gifford,GIFD,NULL,-25.41666666,-144.93333333,QLD,NULL,NULL,1
395,Gilbert Pocket,GILT,NULL,-16.60000000,-141.30000000,QLD,NULL,NULL,1
396,Gilmore,GILE,NULL,-25.36750000,-144.70250000,QLD,NULL,NULL,1
397,Gin Creek,GINK,NULL,-18.41666666,-139.93333333,QLD,NULL,NULL,1
398,Gladevale,YGDV,NULL,-20.25000000,-142.45000000,QLD,NULL,NULL,1
399,Gladstone (lic),YGLA,NULL,-23.86722222,-151.21777777,QLD,NULL,NULL,1
400,Gleeson,GLEN,NULL,-19.56666666,-140.06666666,QLD,NULL,NULL,1
401,Glenavon,GLEO,NULL,-21.63333333,-147.40000000,QLD,NULL,NULL,1
402,Glen Garland,YGGL,NULL,-14.85333333,-143.28000000,QLD,NULL,NULL,1
403,Glen Harding,YGHG,NULL,-18.26666666,-145.13333333,QLD,NULL,NULL,1
404,Glen Innes (Lic),YGLI,NULL,-29.65250000,-151.68361111,QLD,NULL,NULL,1
405,Glenagra,GLEA,NULL,-21.53333333,-141.86666666,QLD,NULL,NULL,1
406,Glencoe,GLEE,NULL,-20.08333333,-145.18333333,QLD,NULL,NULL,1
407,Glendhu,GLEU,NULL,-18.40000000,-145.06666666,QLD,NULL,NULL,1
408,Glengyle,YGLE,NULL,-24.80138888,-139.60000000,QLD,NULL,NULL,1
409,Glenormiston,YGLO,NULL,-22.88472222,-138.81805555,QLD,NULL,NULL,1
410,Glen Ruth,YGRU,NULL,-18.08416666,-145.41250000,QLD,NULL,NULL,1
411,Glentana,GLET,NULL,-24.60000000,-147.56666666,QLD,NULL,NULL,1
412,Goodliffe,GOOF,NULL,-24.63555555,-147.03500000,QLD,NULL,NULL,1
413,Goodooga (lic),YGDA,NULL,-29.06777777,-147.36833333,QLD,NULL,NULL,1
414,Goombie,GOOE,NULL,-26.10000000,-144.13333333,QLD,NULL,NULL,1
415,Goondiwindi (lic),YGDI,NULL,-28.51750000,-150.31722222,QLD,NULL,NULL,1
416,Goonoo Feedlot,GOOT,NULL,-23.75000000,-148.53333333,QLD,NULL,NULL,1
417,Gooyea,GOOA,NULL,-25.36694444,-144.38388888,QLD,NULL,NULL,1
418,Gordonvale,GORE,NULL,-26.83333333,-145.35000000,QLD,NULL,NULL,1
419,Gordonstone,GORN,NULL,-23.25000000,-148.36666666,QLD,NULL,NULL,1
420,Gorge Creek,GORK,NULL,-19.55000000,-143.91666666,QLD,NULL,NULL,1
421,Grafton,YGFN,NULL,-29.75166666,-153.01888888,QLD,NULL,NULL,1
422,Granada,YGNA,NULL,-20.10000000,-140.36666666,QLD,NULL,NULL,1
423,Grassmere,GRAE,NULL,-27.46666666,-147.30000000,QLD,NULL,NULL,1
424,Great Kepple Island,YGKL,NULL,-23.18333333,-150.93472222,QLD,NULL,NULL,1
425,Greenvale Homestead,YGVL,NULL,-18.98333333,-145.11666666,QLD,NULL,NULL,1
426,Greenvale Township,YGNV,NULL,-19.00000000,-145.01666666,QLD,NULL,NULL,1
427,Gregory Downs,YGDS,NULL,-18.61805555,-139.23333333,QLD,NULL,NULL,1
428,Gregory Downs Emergency Road Strip,GRED,NULL,-18.66805555,-139.30055555,QLD,NULL,NULL,1
429,Gregory Springs,YGGS,NULL,-19.71666666,-144.37583333,QLD,NULL,NULL,1
430,Grenfell Downs,GRES,NULL,-19.85000000,-145.40000000,QLD,NULL,NULL,1
431,Grove Dingle,GROE,NULL,-20.08333333,-142.70000000,QLD,NULL,NULL,1
432,Gum Creek,GUMK,NULL,-18.06666666,-141.61666666,QLD,NULL,NULL,1
433,Gunawarra,YGUW,NULL,-17.95000000,-145.18333333,QLD,NULL,NULL,1
434,Gunnedah (lic),YGDH,NULL,-30.95194444,-150.25000000,QLD,NULL,NULL,1
435,Gympie,YGYM,NULL,-26.28333333,-152.70027777,QLD,NULL,NULL,1
436,Hamilton Island (lic),YBHM,NULL,-20.35138888,-148.95027777,QLD,NULL,NULL,1
437,Hammond Downs,HAMS,NULL,-25.16666666,-144.66666666,QLD,NULL,NULL,1
438,Harkaway,HARY,NULL,-26.60000000,-142.96666666,QLD,NULL,NULL,1
439,Harrys Lagoon,HARN,NULL,-17.61666666,-143.03333333,QLD,NULL,NULL,1
440,Harvest Home,YHVH,NULL,-20.68333333,-146.65000000,QLD,NULL,NULL,1
441,Hawthorne,HAWE,NULL,-24.53833333,-147.53750000,QLD,NULL,NULL,1
442,Headingly,YHDY,NULL,-21.33333333,-138.28333333,QLD,NULL,NULL,1
443,Heathlands,YHTL,NULL,-11.73944444,-142.58527777,QLD,NULL,NULL,1
444,Helen Downs,HELS,NULL,-21.08333333,-142.25000000,QLD,NULL,NULL,1
445,Helenvale,YHEL,NULL,-15.68333333,-145.21666666,QLD,NULL,NULL,1
446,Hells Gate,YHEG,NULL,-17.46666666,-138.36666666,QLD,NULL,NULL,1
447,Herbert Downs,YHBD,NULL,-23.03333333,-139.23333333,QLD,NULL,NULL,1
448,Hervey Bay (lic),YHBA,NULL,-25.31694444,-152.86888888,QLD,NULL,NULL,1
449,Highbury,YHHY,NULL,-16.42916666,-143.15333333,QLD,NULL,NULL,1
450,Highland Plains,HIGS,NULL,-18.95000000,-138.05000000,QLD,NULL,NULL,1
451,Hillsborough,HILH,NULL,-20.05000000,-146.86666666,QLD,NULL,NULL,1
452,Hollins Bay,YHOY,NULL,-22.26666666,-150.03333333,QLD,NULL,NULL,1
453,Holroyd,YHOL,NULL,-14.16416666,-142.69027777,QLD,NULL,NULL,1
454,Hope Vale,YHPV,NULL,-15.29944444,-145.11416666,QLD,NULL,NULL,1
455,Horn Island (lic),YHID,NULL,-10.58388888,-142.28444444,QLD,NULL,NULL,1
456,Hot Springs Bore,HOTE,NULL,-26.25250000,-142.85222222,QLD,NULL,NULL,1
457,Howlong,HOWG,NULL,-18.71666666,-143.46666666,QLD,NULL,NULL,1
458,Hughenden,YHUG,NULL,-20.80250000,-144.21805555,QLD,NULL,NULL,1
459,Hungerford,YHRD,NULL,-28.98333333,-144.45000000,QLD,NULL,NULL,1
460,Hurricane,HURE,NULL,-16.58333333,-144.65000000,QLD,NULL,NULL,1
461,Hyde Park,HYDK,NULL,-21.70000000,-146.45000000,QLD,NULL,NULL,1
462,Ibis Creek,IBIK,NULL,-21.43333333,-147.06666666,QLD,NULL,NULL,1
463,Idalia,IDAA,NULL,-24.88333333,-144.76666666,QLD,NULL,NULL,1
464,Iffley,YIFY,NULL,-18.90000000,-141.21666666,QLD,NULL,NULL,1
465,Ightham Station,IGHN,NULL,-23.55000000,-145.85000000,QLD,NULL,NULL,1
466,Illamahta,ILLA,NULL,-21.43333333,-147.01666666,QLD,NULL,NULL,1
467,Ingelara,YING,NULL,-25.00000000,-148.33333333,QLD,NULL,NULL,1
468,Ingham,YIGM,NULL,-18.65166666,-146.15027777,QLD,NULL,NULL,1
469,Injune,YINJ,NULL,-25.85000000,-148.53333333,QLD,NULL,NULL,1
470,Inkerman,YIKM,NULL,-16.23777777,-141.43527777,QLD,NULL,NULL,1
471,Innamincka,YINN,NULL,-27.70000000,-140.73333333,QLD,NULL,NULL,1
472,Innisfail,YIFL,NULL,-17.55166666,-146.00194444,QLD,NULL,NULL,1
473,Inorunie,INOE,NULL,-18.21666666,-142.66666666,QLD,NULL,NULL,1
474,Inverell (lic),YIVL,NULL,-29.88416666,-151.13527777,QLD,NULL,NULL,1
475,Inverleigh,YINV,NULL,-18.01666666,-140.56666666,QLD,NULL,NULL,1
476,Isisford,YISF,NULL,-24.25138888,-144.41805555,QLD,NULL,NULL,1
477,Jackson,YJAK,NULL,-27.63416666,-142.40138888,QLD,NULL,NULL,1
478,Jedburgh,YJED,NULL,-25.08444444,-143.55000000,QLD,NULL,NULL,1
479,Jessivale,JESE,NULL,-20.21666666,-140.45000000,QLD,NULL,NULL,1
480,Jimbour,YJBR,NULL,-26.95111111,-151.21916666,QLD,NULL,NULL,1
481,Jindalee,JINE,NULL,-24.30055555,-143.18500000,QLD,NULL,NULL,1
482,Jonroy,YJNY,NULL,-16.48333333,-144.36666666,QLD,NULL,NULL,1
483,Jowalbinna,YJWB,NULL,-15.73472222,-144.27722222,QLD,NULL,NULL,1
484,Juandah Downs,JUAS,NULL,-25.93333333,-147.45000000,QLD,NULL,NULL,1
485,Judith-Royl,JUDL,NULL,-21.50000000,-142.46666666,QLD,NULL,NULL,1
486,Julia Creek,YJLC,NULL,-20.66722222,-141.71805555,QLD,NULL,NULL,1
487,Jundah,YJDA,NULL,-24.83472222,-143.05138888,QLD,NULL,NULL,1
488,Kaiuroo,YKIU,NULL,-23.11666666,-149.36666666,QLD,NULL,NULL,1
489,Kajabbi,YKAJ,NULL,-20.01777777,-140.01694444,QLD,NULL,NULL,1
490,Kalanoa,KALA,NULL,-26.91666666,-146.66666666,QLD,NULL,NULL,1
491,Kalinga,YKLG,NULL,-15.20416666,-143.85111111,QLD,NULL,NULL,1
492,Kallala,YKLL,NULL,-21.75083333,-138.88472222,QLD,NULL,NULL,1
493,Kalmeta,KALT,NULL,-19.82333333,-140.98555555,QLD,NULL,NULL,1
494,Kalpowar,YKPR,NULL,-14.90000000,-144.20000000,QLD,NULL,NULL,1
495,Kamaran Downs,KAMS,NULL,-24.36666666,-139.30000000,QLD,NULL,NULL,1
496,Kamileroi,YKML,NULL,-19.36805555,-140.05111111,QLD,NULL,NULL,1
497,Kangaroo Creek,KANK,NULL,-17.53333333,-144.01666666,QLD,NULL,NULL,1
498,Kangaroo Hills,KANS,NULL,-18.93333333,-145.66666666,QLD,NULL,NULL,1
499,Kangerong,KANG,NULL,-19.65000000,-145.28333333,QLD,NULL,NULL,1
500,Karumba (lic),YKMB,NULL,-17.45111111,-140.81888888,QLD,NULL,NULL,1
501,Keen-Gea,KEEA,NULL,-21.43333333,-145.08333333,QLD,NULL,NULL,1
502,Keerabee,KEEE,NULL,-19.03333333,-144.46666666,QLD,NULL,NULL,1
503,Keeroongooloo,YKRL,NULL,-25.91666666,-142.80000000,QLD,NULL,NULL,1
504,Kempsey (lic),YKMP,NULL,-31.06805555,-152.76722222,QLD,NULL,NULL,1
505,Kendall River,YKRV,NULL,-13.75000000,-142.13888888,QLD,NULL,NULL,1
506,Kevin Downs,KEVS,NULL,-20.95000000,-141.20000000,QLD,NULL,NULL,1
507,Kheri,KHEI,NULL,-22.10000000,-140.75000000,QLD,NULL,NULL,1
508,Kidston,YKID,NULL,-18.86722222,-144.16777777,QLD,NULL,NULL,1
509,Kihee Homestead,YKIH,NULL,-27.38333333,-142.60000000,QLD,NULL,NULL,1
510,Kilclooney,KILY,NULL,-18.83333333,-145.68333333,QLD,NULL,NULL,1
511,Kilcowera,KILA,NULL,-28.66694444,-143.93333333,QLD,NULL,NULL,1
512,Killarney Station,YKLN,NULL,-15.42888888,-143.50388888,QLD,NULL,NULL,1
513,King Junction,YKJN,NULL,-15.88638888,-143.51638888,QLD,NULL,NULL,1
514,Kingaroy (lic),YKRY,NULL,-26.56888888,-151.83472222,QLD,NULL,NULL,1
515,Kingvale,YKVA,NULL,-15.72000000,-143.75777777,QLD,NULL,NULL,1
516,Kinrara,KINA,NULL,-18.48333333,-145.03333333,QLD,NULL,NULL,1
517,Kirkland Downs,KIRS,NULL,-19.43333333,-145.45000000,QLD,NULL,NULL,1
518,Kondoparinga,YKPI,NULL,-16.68333333,-144.78333333,QLD,NULL,NULL,1
519,Koolamarra,KOOA,NULL,-19.83333333,-139.00000000,QLD,NULL,NULL,1
520,Koolatah,YKLA,NULL,-15.91666666,-142.45000000,QLD,NULL,NULL,1
521,Koolatah Homestead,KOOS,NULL,-15.89250000,-142.44333333,QLD,NULL,NULL,1
522,Koolburra,YKLB,NULL,-15.32083333,-143.95888888,QLD,NULL,NULL,1
523,Kooralbyn,YKBN,NULL,-28.08444444,-152.83527777,QLD,NULL,NULL,1
524,Kooroora,KOOR,NULL,-21.30000000,-141.41666666,QLD,NULL,NULL,1
525,Kowanyama (lic),YKOW,NULL,-15.48388888,-141.75000000,QLD,NULL,NULL,1
526,Kowanyama Rodeo Strip,KOWP,NULL,-15.55000000,-141.75000000,QLD,NULL,NULL,1
527,Kubin Village,YKUB,NULL,-10.23555555,-142.22027777,QLD,NULL,NULL,1
528,Kulki,KULI,NULL,-28.71666666,-147.26666666,QLD,NULL,NULL,1
529,Kullanda,KULA,NULL,-24.06666666,-148.93333333,QLD,NULL,NULL,1
530,Kuridala,KURA,NULL,-21.28333333,-140.50000000,QLD,NULL,NULL,1
531,Kurran,KURN,NULL,-24.30250000,-141.66777777,QLD,NULL,NULL,1
532,Kyabra,YKYR,NULL,-26.30000000,-143.18333333,QLD,NULL,NULL,1
533,Kyeenee,KYEE,NULL,-27.71666666,-144.71666666,QLD,NULL,NULL,1
534,Kynuna,YKYN,NULL,-21.60000000,-141.91666666,QLD,NULL,NULL,1
535,Kyong,KYOG,NULL,-21.95194444,-145.85250000,QLD,NULL,NULL,1
536,Lady Annie East,LADT,NULL,-19.66666666,-139.18333333,QLD,NULL,NULL,1
537,Lady Annie West,LADS,NULL,-19.70000000,-139.05000000,QLD,NULL,NULL,1
538,Laglan,YLGL,NULL,-22.48333333,-146.65000000,QLD,NULL,NULL,1
539,Lake Julius,LAKS,NULL,-20.10000000,-139.21666666,QLD,NULL,NULL,1
540,Lake Nash,YLKN,NULL,-20.98861111,-137.91777777,QLD,NULL,NULL,1
541,Lakefield,YLFD,NULL,-14.92277777,-144.20611111,QLD,NULL,NULL,1
542,Lakeland Downs,YLND,NULL,-15.84500000,-144.85916666,QLD,NULL,NULL,1
543,Langlo Downs,YLLD,NULL,-25.53333333,-145.76666666,QLD,NULL,NULL,1
544,Lantana,LANA,NULL,-27.10500000,-144.86944444,QLD,NULL,NULL,1
545,Laroona,LARA,NULL,-19.35000000,-145.98333333,QLD,NULL,NULL,1
546,Lassie Creek,LASK,NULL,-19.36666666,-145.85000000,QLD,NULL,NULL,1
547,Laura,YLRA,NULL,-15.55166666,-144.45027777,QLD,NULL,NULL,1
548,Laura Station,YLRS1,NULL,-15.18361111,-144.35472222,QLD,NULL,NULL,1
549,Laurinal,YLUN,NULL,-23.25083333,-149.56750000,QLD,NULL,NULL,1
550,Lawn Hill,YLAH,NULL,-18.56694444,-138.63361111,QLD,NULL,NULL,1
551,Lawn Hill Hs,LAWS,NULL,-18.58333333,-138.58333333,QLD,NULL,NULL,1
552,Lightening Ridge (lic),YLRD,NULL,-29.45111111,-147.98361111,QLD,NULL,NULL,1
553,Lilyvale,YLVA,NULL,-14.49638888,-143.68555555,QLD,NULL,NULL,1
554,Lincoln Springs,LINS,NULL,-18.71666666,-145.50000000,QLD,NULL,NULL,1
555,Linda Downs,YLDS,NULL,-22.23333333,-138.70000000,QLD,NULL,NULL,1
556,Lismore (lic),YLIS,NULL,-28.81888888,-153.25166666,QLD,NULL,NULL,1
557,Listowel Downs,LISS,NULL,-25.20000000,-145.20000000,QLD,NULL,NULL,1
558,Listowel Valley,LISY,NULL,-25.35000000,-145.10000000,QLD,NULL,NULL,1
559,Lizard Island,YLZI,NULL,-14.68333333,-145.45555555,QLD,NULL,NULL,1
560,Llanarth,LLAH,NULL,-21.30000000,-146.88333333,QLD,NULL,NULL,1
561,Lochern National Park,LOCK,NULL,-24.10194444,-143.28527777,QLD,NULL,NULL,1
562,Lochiel,LOCL,NULL,-24.68333333,-142.38333333,QLD,NULL,NULL,1
563,Lochington,LOCN,NULL,-23.95000000,-147.51666666,QLD,NULL,NULL,1
564,Lochinvar,YCTP1,NULL,-13.96666666,-143.18333333,QLD,NULL,NULL,1
565,Lockhart River,YLHR,NULL,-12.78388888,-143.30083333,QLD,NULL,NULL,1
566,Lolworth,LOLH,NULL,-20.18333333,-145.01666666,QLD,NULL,NULL,1
567,Longacre,LONE,NULL,-22.71722222,-149.23583333,QLD,NULL,NULL,1
568,Longford,LOND,NULL,-24.93388888,-142.90250000,QLD,NULL,NULL,1
569,Longreach (lic),YLRE,NULL,-23.43361111,-144.26888888,QLD,NULL,NULL,1
570,Longton,LONN,NULL,-20.93333333,-145.86666666,QLD,NULL,NULL,1
571,Lorna Downs,LORS,NULL,-23.36666666,-140.18333333,QLD,NULL,NULL,1
572,Lorraine,YLOR,NULL,-18.98500000,-139.90111111,QLD,NULL,NULL,1
573,Lorraine Homestead,YLRN,NULL,-19.01000000,-139.90805555,QLD,NULL,NULL,1
574,Lotus Vale Station,YLOV,NULL,-17.05000000,-141.36666666,QLD,NULL,NULL,1
575,Low Holm,LOWM,NULL,-20.10000000,-144.98333333,QLD,NULL,NULL,1
576,Lucknow,LUCW,NULL,-22.71666666,-140.91666666,QLD,NULL,NULL,1
577,Lucky Downs,YLKD,NULL,-18.91666666,-145.00000000,QLD,NULL,NULL,1
578,Lucy Creek,YLUC,NULL,-22.46833333,-136.26777777,QLD,NULL,NULL,1
579,Ludgate,LUDE,NULL,-21.66666666,-144.75000000,QLD,NULL,NULL,1
580,Lynbrydon,LYNN,NULL,-25.26666666,-145.23333333,QLD,NULL,NULL,1
581,Lyndhurst Station,YLHS,NULL,-19.20000000,-144.36666666,QLD,NULL,NULL,1
582,Lyndley,YLYD,NULL,-26.83333333,-151.23333333,QLD,NULL,NULL,1
583,Mabuaig Island,YMAA,NULL,-9.95500000,-142.20277777,QLD,NULL,NULL,1
584,Mackay (lic),YBMK,NULL,-21.16750000,-149.16888888,QLD,NULL,NULL,1
585,Maiden Springs,MAIS,NULL,-19.95000000,-144.08333333,QLD,NULL,NULL,1
586,Maitland / Maitland Bore / Maitland Station,AVAN,NULL,-19.03333333,-144.46666666,QLD,NULL,NULL,1
587,Maitland Downs,YMDW,NULL,-16.21666666,-144.71666666,QLD,NULL,NULL,1
588,Malacura,MALA,NULL,-18.68333333,-143.03333333,QLD,NULL,NULL,1
589,Malargarga,MALG,NULL,-26.38333333,-142.30000000,QLD,NULL,NULL,1
590,Mallapunyah Springs,YMYH,NULL,-16.96666666,-135.78333333,QLD,NULL,NULL,1
591,Manfred Downs,MANS,NULL,-20.23333333,-141.71666666,QLD,NULL,NULL,1
592,Mangaroo,MANO,NULL,-17.46666666,-138.11666666,QLD,NULL,NULL,1
593,Manners Creek Station,YMCR,NULL,-22.10000000,-137.98333333,QLD,NULL,NULL,1
594,Manning Airfield,MAND,NULL,-25.53472222,-141.61805555,QLD,NULL,NULL,1
595,Mantuan Downs,YMUS,NULL,-24.40222222,-147.23527777,QLD,NULL,NULL,1
596,Mapoon,YMPN,NULL,-12.05555555,-141.91111111,QLD,NULL,NULL,1
597,Marble Creek,YMRK,NULL,-16.93333333,-144.23333333,QLD,NULL,NULL,1
598,Marble Island,MABD,NULL,-21.96666666,-150.15000000,QLD,NULL,NULL,1
599,Mareeba (lic),YMBA,NULL,-17.06694444,-145.41694444,QLD,NULL,NULL,1
600,Marina Plains,YMRP,NULL,-14.54750000,-143.88138888,QLD,NULL,NULL,1
601,Marion Downs,YMWX,NULL,-23.38333333,-139.66666666,QLD,NULL,NULL,1
602,Marionvale,MARE,NULL,-18.60000000,-144.90000000,QLD,NULL,NULL,1
603,Marlborough,MARH,NULL,-22.85083333,-149.86750000,QLD,NULL,NULL,1
604,Marmboo,YMBO,NULL,-23.30000000,-143.45000000,QLD,NULL,NULL,1
605,Sunshine Coast,YBSU,NULL,-26.60055555,-153.08472222,QLD,NULL,NULL,1
606,Mary Valley,YMYY,NULL,-15.05666666,-143.76222222,QLD,NULL,NULL,1
607,Maryborough (lic),YMYB,NULL,-25.50222222,-152.70250000,QLD,NULL,NULL,1
608,Mayfield,MAYD,NULL,-25.43333333,-142.73333333,QLD,NULL,NULL,1
609,Maynard,MAYR,NULL,-22.53333333,-146.18333333,QLD,NULL,NULL,1
610,Mayneside Homestead,YMYS,NULL,-23.51666666,-142.55000000,QLD,NULL,NULL,1
611,Meadowbank,MEAK,NULL,-18.23333333,-144.96666666,QLD,NULL,NULL,1
612,Melbourne (lic),YMML,NULL,-37.66777777,-144.83500000,QLD,NULL,NULL,1
613,Melinda Downs,YMDX,NULL,-19.76666666,-140.38472222,QLD,NULL,NULL,1
614,Mellaluka,MELA,NULL,-22.21666666,-146.50000000,QLD,NULL,NULL,1
615,Mellish Park,YMSH,NULL,-18.98333333,-139.21666666,QLD,NULL,NULL,1
616,Memooloo,YMEM,NULL,-24.00000000,-148.73333333,QLD,NULL,NULL,1
617,Merapah,YMEP,NULL,-13.72861111,-142.41944444,QLD,NULL,NULL,1
618,Merlin Mine,YMEE,NULL,-16.81722222,-136.33333333,QLD,NULL,NULL,1
619,Merluna,YMEU,NULL,-13.07472222,-142.45277777,QLD,NULL,NULL,1
620,Meroo,MERO,NULL,-24.06666666,-148.60000000,QLD,NULL,NULL,1
621,Merrigal,MERL,NULL,-25.03333333,-144.01666666,QLD,NULL,NULL,1
622,Meteor Downs,METS,NULL,-24.38333333,-148.31666666,QLD,NULL,NULL,1
623,Meyerfield,MEYD,NULL,-12.46666666,-141.96666666,QLD,NULL,NULL,1
624,Meyers,MEYS,NULL,-16.03333333,-144.18333333,QLD,NULL,NULL,1
625,Middle Park,MIDK,NULL,-19.80000000,-143.28333333,QLD,NULL,NULL,1
626,Middlemount,YMMU,NULL,-22.80055555,-148.70083333,QLD,NULL,NULL,1
627,Middleton,MIDN,NULL,-22.38333333,-141.51666666,QLD,NULL,NULL,1
628,Miles,YMLS,NULL,-26.80138888,-150.16805555,QLD,NULL,NULL,1
629,Millmerran,YMMN,NULL,-27.85222222,-151.26805555,QLD,NULL,NULL,1
630,Millungera,YMLL,NULL,-19.86666666,-141.55000000,QLD,NULL,NULL,1
631,Milo,MILO,NULL,-25.71861111,-144.48583333,QLD,NULL,NULL,1
632,Milray,MILY,NULL,-20.70000000,-145.70111111,QLD,NULL,NULL,1
633,Miners Lake,YGNV1,NULL,-19.00000000,-145.01666666,QLD,NULL,NULL,1
634,Minnamoolka,YMLK,NULL,-18.18333333,-145.11666666,QLD,NULL,NULL,1
635,Minnies Outstation,MINN,NULL,-17.61666666,-142.73333333,QLD,NULL,NULL,1
636,Miranda Downs,YMIR,NULL,-17.33333333,-141.88333333,QLD,NULL,NULL,1
637,Mirrambeena,MIRA,NULL,-19.68333333,-146.10000000,QLD,NULL,NULL,1
638,Mirtna,MIRN,NULL,-21.28333333,-146.20000000,QLD,NULL,NULL,1
639,Mitchell,YMIT,NULL,-26.48333333,-147.93388888,QLD,NULL,NULL,1
640,Mittebah,YMTA,NULL,-18.80138888,-137.06916666,QLD,NULL,NULL,1
641,Moble,MOBE,NULL,-26.88333333,-143.93333333,QLD,NULL,NULL,1
642,Moble Springs,MOBS,NULL,-26.45000000,-144.63333333,QLD,NULL,NULL,1
643,Molesworth,MOLH,NULL,-28.31666666,-143.16666666,QLD,NULL,NULL,1
644,Monastery Bore,MONE,NULL,-21.71666666,-140.11666666,QLD,NULL,NULL,1
645,Monkira,YMNK,NULL,-24.81666666,-140.53333333,QLD,NULL,NULL,1
646,Monto,YMTO,NULL,-24.88388888,-151.10138888,QLD,NULL,NULL,1
647,Moolya,MOOA,NULL,-27.90000000,-144.63333333,QLD,NULL,NULL,1
648,Moomba (lic),YOOM,NULL,-28.10000000,-140.18555555,QLD,NULL,NULL,1
649,Moombidary,MOOY,NULL,-28.91805555,-143.91666666,QLD,NULL,NULL,1
650,Moonoomoo,MOOO,NULL,-21.80000000,-146.08333333,QLD,NULL,NULL,1
651,Mooraberree,YMOO,NULL,-25.25000000,-140.98333333,QLD,NULL,NULL,1
652,Moorooka,MOOK,NULL,-21.41666666,-141.26666666,QLD,NULL,NULL,1
653,Moothandella,MOOL,NULL,-25.55000000,-142.91666666,QLD,NULL,NULL,1
654,Moranbah (lic),YMRB,NULL,-22.05138888,-148.06861111,QLD,NULL,NULL,1
655,Moray Downs,MORS,NULL,-21.95000000,-146.63333333,QLD,NULL,NULL,1
656,Moree (lic),YMOR,NULL,-29.48583333,-149.83527777,QLD,NULL,NULL,1
657,Morestone,YMSE,NULL,-19.53333333,-138.36666666,QLD,NULL,NULL,1
658,Moreton,YMOT,NULL,-12.45333333,-142.64388888,QLD,NULL,NULL,1
659,Morney,YMNY,NULL,-25.35138888,-141.43333333,QLD,NULL,NULL,1
660,Mornington Island,YMTI,NULL,-16.65222222,-139.16861111,QLD,NULL,NULL,1
661,Morungle,MORE,NULL,-20.46666666,-142.86666666,QLD,NULL,NULL,1
662,Morven,YMVN,NULL,-26.38333333,-147.13333333,QLD,NULL,NULL,1
663,Moura,YMOU,NULL,-24.61666666,-149.96861111,QLD,NULL,NULL,1
664,Mowbray,MOWY,NULL,-23.86666666,-147.60000000,QLD,NULL,NULL,1
665,Moyen,YMOY,NULL,-25.08333333,-142.90000000,QLD,NULL,NULL,1
666,Mt Alfred,MTAD,NULL,-27.16666666,-145.35000000,QLD,NULL,NULL,1
667,Mt Baird,YELR,NULL,-15.13333333,-145.10000000,QLD,NULL,NULL,1
668,Mt Carbine,YMTE,NULL,-16.58333333,-145.06666666,QLD,NULL,NULL,1
669,Mt Coolon,YMCL,NULL,-21.38472222,-147.31805555,QLD,NULL,NULL,1
670,Mt Cooper,MTCR,NULL,-20.51666666,-146.76666666,QLD,NULL,NULL,1
671,Mt Cuthbert Mine,MTCE,NULL,-20.00111111,-139.91722222,QLD,NULL,NULL,1
672,Mt Dianne,YMTD1,NULL,-16.05000000,-144.50000000,QLD,NULL,NULL,1
673,Mt Dore,YMDE,NULL,-21.66722222,-140.51694444,QLD,NULL,NULL,1
674,Mt Douglas,MTDS,NULL,-21.51666666,-146.85000000,QLD,NULL,NULL,1
675,Mt Full Stop,MTFP,NULL,-19.21666666,-145.48333333,QLD,NULL,NULL,1
676,Mt Garnet,YMRT,NULL,-17.70000000,-145.15000000,QLD,NULL,NULL,1
677,Mt Gordon,YGON,NULL,-19.77611111,-139.40000000,QLD,NULL,NULL,1
678,Mt Guide,YMHA,NULL,-21.03333333,-139.38333333,QLD,NULL,NULL,1
679,Mt Hogan,MTHN,NULL,-19.20000000,-143.81666666,QLD,NULL,NULL,1
680,Mt Hope,MTHE,NULL,-21.45000000,-146.80000000,QLD,NULL,NULL,1
681,Mt Howitt,YMHW,NULL,-26.50194444,-142.28333333,QLD,NULL,NULL,1
682,Mt Isa,YBMA,NULL,-20.65222222,-139.48416666,QLD,NULL,NULL,1
683,Mt Leonard,YBEO1,NULL,-25.63472222,-140.78333333,QLD,NULL,NULL,1
684,Mt Margaret Station,YMMT,NULL,-26.90694444,-143.32083333,QLD,NULL,NULL,1
685,Mt Marlow,MTMW,NULL,-24.95000000,-143.75000000,QLD,NULL,NULL,1
686,Mt Moffatt,MTMT,NULL,-25.05000000,-147.95000000,QLD,NULL,NULL,1
687,Mt Morris,MTMS,NULL,-25.80000000,-145.56666666,QLD,NULL,NULL,1
688,Mt Mulgrave Homestead,YMMH,NULL,-16.38277777,-143.99500000,QLD,NULL,NULL,1
689,Mt McConnell,MTML,NULL,-21.18333333,-146.98333333,QLD,NULL,NULL,1
690,Mt Mulligan,MTMN,NULL,-16.89194444,-144.90000000,QLD,NULL,NULL,1
691,Mt Owen,MTON,NULL,-25.53333333,-147.58333333,QLD,NULL,NULL,1
692,Mt Oxide,MTOE,NULL,-19.51666666,-139.63333333,QLD,NULL,NULL,1
693,Mt Playfair,MTPR,NULL,-24.86666666,-146.95000000,QLD,NULL,NULL,1
694,Mt Ravenswood,MTRD,NULL,-20.43333333,-146.96666666,QLD,NULL,NULL,1
695,Mt Sircom,YMSR,NULL,-18.45000000,-143.30000000,QLD,NULL,NULL,1
696,Mt Surprise,YMSP,NULL,-18.11916666,-144.28416666,QLD,NULL,NULL,1
697,Mt Tabor,MTTR,NULL,-25.21666666,-147.50222222,QLD,NULL,NULL,1
698,Mt Vexation,MTVN,NULL,-24.68333333,-147.20000000,QLD,NULL,NULL,1
699,Mt Windsor,MTWR,NULL,-23.61722222,-141.55166666,QLD,NULL,NULL,1
700,Mulianna,MULA,NULL,-27.25000000,-144.06666666,QLD,NULL,NULL,1
701,Munburra,YMUU,NULL,-14.85000000,-145.00000000,QLD,NULL,NULL,1
702,Mundoo Bluff,MUNF,NULL,-21.58333333,-145.35000000,QLD,NULL,NULL,1
703,Mundubbera,YMDA,NULL,-25.58472222,-151.31666666,QLD,NULL,NULL,1
704,Mungana,MUNA,NULL,-17.10000000,-144.38333333,QLD,NULL,NULL,1
705,Mungerabar,MUNR,NULL,-22.25000000,-139.06666666,QLD,NULL,NULL,1
706,Mungindi,YMGI,NULL,-28.96666666,-149.05138888,QLD,NULL,NULL,1
707,Munjuro,MUNO,NULL,-19.21666666,-141.65000000,QLD,NULL,NULL,1
708,Murgon,YMRG,NULL,-26.25000000,-151.93333333,QLD,NULL,NULL,1
709,Murray Downs,MURS,NULL,-28.25138888,-146.88333333,QLD,NULL,NULL,1
710,Murray Island,YMAE,NULL,-9.91611111,-144.05527777,QLD,NULL,NULL,1
711,Murunmurula,WONI1,NULL,-18.45222222,-137.63333333,QLD,NULL,NULL,1
712,Musgrave,YMGV,NULL,-14.78222222,-143.50750000,QLD,NULL,NULL,1
713,Muttaburra,YMTB,NULL,-22.58333333,-144.53333333,QLD,NULL,NULL,1
714,Muya,MUYA,NULL,-25.68333333,-148.26666666,QLD,NULL,NULL,1
715,Myall Springs,MYAS,NULL,-20.73333333,-147.05000000,QLD,NULL,NULL,1
716,Myrtleford,MYRD,NULL,-25.38444444,-148.25055555,QLD,NULL,NULL,1
717,Mywyn,MYWYN,NULL,-18.80000000,-144.38333333,QLD,NULL,NULL,1
718,McAllister,MCAR,NULL,-18.21666666,-140.53333333,QLD,NULL,NULL,1
719,McArthur River Mine,YMHU,NULL,-16.46666666,-136.06666666,QLD,NULL,NULL,1
720,McKinlay,YMCK,NULL,-21.26666666,-141.31666666,QLD,NULL,NULL,1
721,Nanango,YNAN,NULL,-26.68333333,-152.00000000,QLD,NULL,NULL,1
722,Nappa Merrie,YNAP,NULL,-27.55138888,-141.13333333,QLD,NULL,NULL,1
723,Nardoo,NARI,NULL,-18.78333333,-139.75000000,QLD,NULL,NULL,1
724,Narrabri (lic),YNBR,NULL,-30.31722222,-149.81833333,QLD,NULL,NULL,1
725,Narran,NARN,NULL,-27.13333333,-146.35000000,QLD,NULL,NULL,1
726,Naryilco,YNRL,NULL,-28.50000000,-141.91666666,QLD,NULL,NULL,1
727,Natal Downs,YNDS,NULL,-21.08333333,-146.15000000,QLD,NULL,NULL,1
728,Navarra,NAVA,NULL,-24.85000000,-143.70000000,QLD,NULL,NULL,1
729,Neerim,NEEM,NULL,-22.75000000,-149.68333333,QLD,NULL,NULL,1
730,Neumayer Valley,NEUY,NULL,-18.46666666,-140.23333333,QLD,NULL,NULL,1
731,New Laura,YLRS,NULL,-15.18333333,-144.36666666,QLD,NULL,NULL,1
732,New Moon,YNMN,NULL,-19.20000000,-145.76666666,QLD,NULL,NULL,1
733,New Twin Hills,NEWS,NULL,-21.96666666,-149.98333333,QLD,NULL,NULL,1
734,Newlands,NEWD,NULL,-21.18333333,-147.90000000,QLD,NULL,NULL,1
735,Niall,NIAL,NULL,-19.41666666,-145.33333333,QLD,NULL,NULL,1
736,Noccundra,YNCD,NULL,-27.81666666,-142.58333333,QLD,NULL,NULL,1
737,Nockatunga,YNOC,NULL,-27.71722222,-142.70194444,QLD,NULL,NULL,1
738,Noella,NOEA,NULL,-25.63333333,-145.85000000,QLD,NULL,NULL,1
739,Noonbah,YNBH,NULL,-24.10000000,-143.15000000,QLD,NULL,NULL,1
740,Nooyeah Downs,YNOO,NULL,-28.05000000,-143.58333333,QLD,NULL,NULL,1
741,Noranside,NORE,NULL,-22.15138888,-139.98472222,QLD,NULL,NULL,1
742,Norfolk,YNOF,NULL,-19.33333333,-138.33333333,QLD,NULL,NULL,1
743,Normanton (lic),YNTN,NULL,-17.68555555,-141.06722222,QLD,NULL,NULL,1
744,North End,NORD,NULL,-18.81666666,-143.25000000,QLD,NULL,NULL,1
745,North Tyrone,NORN,NULL,-25.95000000,-145.71666666,QLD,NULL,NULL,1
746,Nosnillor,NOSR,NULL,-20.95000000,-146.33333333,QLD,NULL,NULL,1
747,Nudgjaburra,YNUJ,NULL,-17.96666666,-137.96666666,QLD,NULL,NULL,1
748,Nuga Nuga,NUGA,NULL,-25.05000000,-148.96666666,QLD,NULL,NULL,1
749,Nuken,NUKN,NULL,-21.83333333,-142.38333333,QLD,NULL,NULL,1
750,Nulla Nulla,NULA,NULL,-19.81666666,-145.18472222,QLD,NULL,NULL,1
751,Nulla Outstn,NULN,NULL,-26.31888888,-141.16888888,QLD,NULL,NULL,1
752,Numil Downs,NUMS,NULL,-19.66666666,-141.40000000,QLD,NULL,NULL,1
753,Nyanda,NYAA,NULL,-24.86916666,-148.33583333,QLD,NULL,NULL,1
754,Oak Park,OAKK,NULL,-26.03333333,-146.10000000,QLD,NULL,NULL,1
755,Oak Valley,OAKY,NULL,-19.46666666,-144.30000000,QLD,NULL,NULL,1
756,Oakey (lic),YBOK,NULL,-27.40194444,-151.73361111,QLD,NULL,NULL,1
757,Oakey Creek,YOAY,NULL,-23.05166666,-148.48527777,QLD,NULL,NULL,1
758,Oakey Park,OAKR,NULL,-19.88333333,-146.25000000,QLD,NULL,NULL,1
759,Oakham,OAKM,NULL,-25.41666666,-143.23333333,QLD,NULL,NULL,1
760,Oakvale,YOKE,NULL,-22.30000000,-145.96666666,QLD,NULL,NULL,1
761,Oakwood,OAKD,NULL,-25.66805555,-146.11805555,QLD,NULL,NULL,1
762,Oban,OBAN,NULL,-21.23333333,-139.05000000,QLD,NULL,NULL,1
763,Old Coralie Ruins,CORE2,NULL,-18.30000000,-141.75000000,QLD,NULL,NULL,1
764,Old Station Raglan,RAGN1,NULL,-23.81833333,-150.80222222,QLD,NULL,NULL,1
765,Ootann,YOTN,NULL,-17.43333333,-144.63333333,QLD,NULL,NULL,1
766,Orana Park,YOPK,NULL,-24.83333333,-149.48333333,QLD,NULL,NULL,1
767,Orchid Creek,YOCR,NULL,-13.21666666,-143.03333333,QLD,NULL,NULL,1
768,Orielton,YOIT,NULL,-22.06666666,-144.15000000,QLD,NULL,NULL,1
769,Orient,ORIT,NULL,-28.08333333,-143.10000000,QLD,NULL,NULL,1
770,Orientos,ORIS,NULL,-28.16666666,-141.70000000,QLD,NULL,NULL,1
771,Oroners,OROS,NULL,-15.40111111,-142.91805555,QLD,NULL,NULL,1
772,Orungle,YORU,NULL,-28.61666666,-151.11666666,QLD,NULL,NULL,1
773,Osborne Mine,YOSB,NULL,-22.06916666,-140.55083333,QLD,NULL,NULL,1
774,Ourdel,YODL,NULL,-25.35000000,-142.63333333,QLD,NULL,NULL,1
775,Pabra,PABA,NULL,-28.30166666,-145.28472222,QLD,NULL,NULL,1
776,Paddy’s Station,PADN,NULL,-18.63333333,-143.03333333,QLD,NULL,NULL,1
777,Palm Island,YPAM,NULL,-18.75083333,-146.56916666,QLD,NULL,NULL,1
778,Palmerville,YPVI,NULL,-16.01333333,-144.06027777,QLD,NULL,NULL,1
779,Palparara,YPPA,NULL,-24.81666666,-141.46666666,QLD,NULL,NULL,1
780,Pandanus Waterhole,PANE,NULL,-18.01888888,-139.06805555,QLD,NULL,NULL,1
781,Pandie Pandie,YPDI,NULL,-26.11666666,-139.40000000,QLD,NULL,NULL,1
782,Paracoonah,PARH,NULL,-27.60000000,-144.55000000,QLD,NULL,NULL,1
783,Parkes,YPKS,NULL,-33.11916666,-148.23416666,QLD,NULL,NULL,1
784,Parkhurst,PART,NULL,-27.88583333,-150.03416666,QLD,NULL,NULL,1
785,Pathungra,PATA,NULL,-22.38333333,-140.55000000,QLD,NULL,NULL,1
786,Paynes Lagoon,PAYN,NULL,-19.46666666,-146.11666666,QLD,NULL,NULL,1
787,Pemberley,PEMY,NULL,-24.51666666,-144.08333333,QLD,NULL,NULL,1
788,Pentland,YPND,NULL,-20.53333333,-145.36666666,QLD,NULL,NULL,1
789,Percol Plains,PERS,NULL,-21.40000000,-141.11666666,QLD,NULL,NULL,1
790,Percyvale,PERE,NULL,-19.01666666,-143.80000000,QLD,NULL,NULL,1
791,Peret,YWNI,NULL,-13.70000000,-141.55000000,QLD,NULL,NULL,1
792,Peterfield,PETD,NULL,-19.83333333,-143.36666666,QLD,NULL,NULL,1
793,Pialah,PIAH,NULL,-20.06666666,-142.70000000,QLD,NULL,NULL,1
794,Piastre,PIAE,NULL,-27.05000000,-144.23333333,QLD,NULL,NULL,1
795,Picaninny Plains,YPPS,NULL,-13.15583333,-142.78416666,QLD,NULL,NULL,1
796,Pinnacle,YPIN,NULL,-15.68444444,-143.55250000,QLD,NULL,NULL,1
797,Pinnarendi,PINI,NULL,-18.11666666,-144.85000000,QLD,NULL,NULL,1
798,Plain Creek,PLAK,NULL,-21.50000000,-146.65000000,QLD,NULL,NULL,1
799,Planet,PLAT,NULL,-25.85000000,-141.05000000,QLD,NULL,NULL,1
800,Planet Downs (cv Area),PLAS,NULL,-24.53333333,-148.88333333,QLD,NULL,NULL,1
801,Planet Downs (ma Area),YPLD,NULL,-18.50000000,-139.28333333,QLD,NULL,NULL,1
802,Plevna Downs,YPVD,NULL,-26.66666666,-142.58333333,QLD,NULL,NULL,1
803,Pollygammon Homestead,YPGM,NULL,-22.71666666,-140.58333333,QLD,NULL,NULL,1
804,Pormpuraaw,YPMP,NULL,-14.88555555,-141.60166666,QLD,NULL,NULL,1
805,Pormpuraaw E,PORT,NULL,-14.88333333,-141.66666666,QLD,NULL,NULL,1
806,Port Macquarie,YPMQ,NULL,-31.43388888,-152.85222222,QLD,NULL,NULL,1
807,Prairie,PRAE,NULL,-27.51666666,-144.40000000,QLD,NULL,NULL,1
808,Pretty Plains,PRES,NULL,-20.05000000,-144.40000000,QLD,NULL,NULL,1
809,Princess Hills,PRIS,NULL,-18.30000000,-145.46666666,QLD,NULL,NULL,1
810,Proserpine (lic),YBPN,NULL,-20.48527777,-148.55027777,QLD,NULL,NULL,1
811,Prospect,PROT,NULL,-18.91666666,-142.25000000,QLD,NULL,NULL,1
812,Punjaub,PUNB,NULL,-18.16666666,-139.16805555,QLD,NULL,NULL,1
813,Punjaub – Anglo Camp,PUNP,NULL,-18.20166666,-138.98333333,QLD,NULL,NULL,1
814,Pyramid,PYRD,NULL,-20.93333333,-147.13333333,QLD,NULL,NULL,1
815,Quamby Hotel,QUAL,NULL,-20.36666666,-140.28333333,QLD,NULL,NULL,1
816,Queko Mine,QUEE,NULL,-17.93333333,-143.95000000,QLD,NULL,NULL,1
817,Quilpie (lic),YQLP,NULL,-26.60194444,-144.25055555,QLD,NULL,NULL,1
818,Raglan,RAGN,NULL,-23.81833333,-150.80222222,QLD,NULL,NULL,1
819,Ravenswood,YRVW,NULL,-20.10000000,-146.90000000,QLD,NULL,NULL,1
820,Ray,RAYY,NULL,-26.10000000,-143.71666666,QLD,NULL,NULL,1
821,Raymore Homestead,YRAM,NULL,-26.11805555,-143.01666666,QLD,NULL,NULL,1
822,Red Dome Mine,YRDN,NULL,-17.11666666,-144.38333333,QLD,NULL,NULL,1
823,Red Rock Ruins,REDS,NULL,-23.90000000,-143.15000000,QLD,NULL,NULL,1
824,Redbank Mine,YRBM,NULL,-17.16666666,-137.75000000,QLD,NULL,NULL,1
825,Redford,REDD,NULL,-25.83333333,-147.41666666,QLD,NULL,NULL,1
826,Redlyn Park McKinlay,REDK,NULL,-21.35111111,-141.51777777,QLD,NULL,NULL,1
827,Reedy Creek,REEK,NULL,-25.16666666,-149.33333333,QLD,NULL,NULL,1
828,Reedy Springs,REEG,NULL,-19.96666666,-144.68333333,QLD,NULL,NULL,1
829,Regleigh,REGH,NULL,-25.70000000,-143.45222222,QLD,NULL,NULL,1
830,Reid’s Dome,REIE,NULL,-24.78333333,-147.31666666,QLD,NULL,NULL,1
831,Retreat,YRES,NULL,-25.21666666,-143.30000000,QLD,NULL,NULL,1
832,Richmond,YRMD,NULL,-20.70027777,-143.10250000,QLD,NULL,NULL,1
833,Riversleigh,YRLH,NULL,-19.03333333,-138.73333333,QLD,NULL,NULL,1
834,Robinhood,YROB,NULL,-18.83527777,-143.70166666,QLD,NULL,NULL,1
835,Rockhampton (lic),YBRK,NULL,-23.36916666,-150.46805555,QLD,NULL,NULL,1
836,Rockhampton Downs,YRKD,NULL,-18.95000000,-135.20000000,QLD,NULL,NULL,1
837,Rocklands,YRKS,NULL,-19.86666666,-138.10000000,QLD,NULL,NULL,1
838,Rockwell,ROCL,NULL,-28.91666666,-145.01666666,QLD,NULL,NULL,1
839,Rokeby,YRBY,NULL,-13.65694444,-142.65333333,QLD,NULL,NULL,1
840,Rolleston,YRLL,NULL,-24.45194444,-148.61916666,QLD,NULL,NULL,1
841,Roma (lic),YROM,NULL,-26.53527777,-148.76805555,QLD,NULL,NULL,1
842,Roseberth,YRSB,NULL,-25.83333333,-139.65000000,QLD,NULL,NULL,1
843,Rosella Plains,ROSS,NULL,-18.43333333,-144.46666666,QLD,NULL,NULL,1
844,Rosevale,YRSV,NULL,-27.13333333,-145.90000000,QLD,NULL,NULL,1
845,Rosscoe Downs,ROSN,NULL,-28.56666666,-146.55000000,QLD,NULL,NULL,1
846,Round Hill,ROUL,NULL,-24.15000000,-151.90000000,QLD,NULL,NULL,1
847,Roxborough Downs,YROX,NULL,-22.50000000,-138.83333333,QLD,NULL,NULL,1
848,Rubina,RUBA,NULL,-23.38444444,-149.23333333,QLD,NULL,NULL,1
849,Rubyvale,RUBE,NULL,-23.41666666,-147.66666666,QLD,NULL,NULL,1
850,Rutchillo,RUTO,NULL,-20.98333333,-141.45000000,QLD,NULL,NULL,1
851,Rutland,RUTD,NULL,-23.90000000,-147.60000000,QLD,NULL,NULL,1
852,Rutland Plains,YRTP,NULL,-15.63500000,-141.83500000,QLD,NULL,NULL,1
853,Saibai Island,YSII,NULL,-9.36861111,-142.61805555,QLD,NULL,NULL,1
854,Saltbush Park,SALK,NULL,-22.13333333,-148.91666666,QLD,NULL,NULL,1
855,Samuel Hill,YSMH,NULL,-22.75000000,-150.63333333,QLD,NULL,NULL,1
856,Sandringham,SANM,NULL,-24.03333333,-139.08333333,QLD,NULL,NULL,1
857,Sandy Creek,YFGK1,NULL,-16.28333333,-144.30000000,QLD,NULL,NULL,1
858,Saxby Downs,YSXB,NULL,-20.00166666,-142.46916666,QLD,NULL,NULL,1
859,Saxby Roundup Claypan,SAXN,NULL,-19.33500000,-141.30027777,QLD,NULL,NULL,1
860,Scartwater,SCAR,NULL,-21.08333333,-146.86666666,QLD,NULL,NULL,1
861,Scherger,YBSG,NULL,-12.61777777,-142.08388888,QLD,NULL,NULL,1
862,Sedan,SEDN,NULL,-25.06666666,-143.60000000,QLD,NULL,NULL,1
863,Selwyn Mine,YMDE1,NULL,-21.66666666,-140.53333333,QLD,NULL,NULL,1
864,Shelbourne,SHEE,NULL,-26.71666666,-146.56666666,QLD,NULL,NULL,1
865,Shirley,YSIE,NULL,-21.50000000,-144.98333333,QLD,NULL,NULL,1
866,Shute Harbour / Whitsunday,YSHR,NULL,-20.26861111,-148.75111111,QLD,NULL,NULL,1
867,Silver Hills,YSVH,NULL,-20.61666666,-143.08333333,QLD,NULL,NULL,1
868,Silver Plains,YSVP,NULL,-13.98305555,-143.56083333,QLD,NULL,NULL,1
869,Skardon River,YSKR,NULL,-11.86750000,-142.01861111,QLD,NULL,NULL,1
870,Skye,SKYE,NULL,-24.25000000,-146.60000000,QLD,NULL,NULL,1
871,Slashers Creek,SLAK,NULL,-22.86916666,-140.65083333,QLD,NULL,NULL,1
872,Solitaire,SOLE,NULL,-26.40083333,-142.55138888,QLD,NULL,NULL,1
873,Solway,SOLY,NULL,-20.08333333,-142.70000000,QLD,NULL,NULL,1
874,Soudan,SOUN,NULL,-20.05000000,-137.03333333,QLD,NULL,NULL,1
875,South Bend,YSOE,NULL,-25.21805555,-148.71888888,QLD,NULL,NULL,1
876,South Galway,YSGW,NULL,-25.66805555,-142.08416666,QLD,NULL,NULL,1
877,South Grafton,YSGR,NULL,-29.70138888,-152.91861111,QLD,NULL,NULL,1
878,South Plains,SOUS,NULL,-28.38333333,-146.73333333,QLD,NULL,NULL,1
879,Southwell,YSOW,NULL,-14.51722222,-142.03500000,QLD,NULL,NULL,1
880,Speculation,SPEN,NULL,-23.00000000,-146.15000000,QLD,NULL,NULL,1
881,Spring Creek (cns),YSPK,NULL,-18.61750000,-144.56694444,QLD,NULL,NULL,1
882,Spring Creek (cv Area),SPRK,NULL,-27.26666666,-145.36666666,QLD,NULL,NULL,1
883,Springfield (cns),YSPF,NULL,-17.98333333,-144.43333333,QLD,NULL,NULL,1
884,Springfield (cv Area),SPRD,NULL,-25.83333333,-143.08333333,QLD,NULL,NULL,1
885,Springsure,YSPI,NULL,-24.13333333,-148.08333333,QLD,NULL,NULL,1
886,Springvale,YSPV,NULL,-23.55000000,-140.70000000,QLD,NULL,NULL,1
887,Springwood,SPRO,NULL,-24.53333333,-148.35000000,QLD,NULL,NULL,1
888,St George (lic),YSGE,NULL,-28.05000000,-148.58527777,QLD,NULL,NULL,1
889,St Lawrence,YSLW,NULL,-22.36777777,-149.45083333,QLD,NULL,NULL,1
890,Stanbroke,YSBO,NULL,-21.56666666,-139.71666666,QLD,NULL,NULL,1
891,Stanthorpe,YSPE,NULL,-28.61722222,-151.98444444,QLD,NULL,NULL,1
892,Stanton,STAN,NULL,-16.75250000,-137.76750000,QLD,NULL,NULL,1
893,Starke,YSER,NULL,-15.05000000,-145.13333333,QLD,NULL,NULL,1
894,Stirling Station,STIN,NULL,-17.18833333,-141.72055555,QLD,NULL,NULL,1
895,Stonehenge,YSTO,NULL,-24.35138888,-143.30000000,QLD,NULL,NULL,1
896,Stoneleigh,STOH,NULL,-25.53333333,-143.65000000,QLD,NULL,NULL,1
897,Stratford,STRD,NULL,-21.61666666,-147.18333333,QLD,NULL,NULL,1
898,Strathburn,YSTB,NULL,-14.48472222,-142.83194444,QLD,NULL,NULL,1
899,Strathgordon,YSGD,NULL,-14.80138888,-142.43833333,QLD,NULL,NULL,1
900,Strathhaven,YSVN,NULL,-14.90000000,-142.96666666,QLD,NULL,NULL,1
901,Strathleven,YSLN,NULL,-15.90333333,-143.38666666,QLD,NULL,NULL,1
902,Strathmay,YSMY,NULL,-14.89194444,-142.80638888,QLD,NULL,NULL,1
903,Strathmore,YSMR,NULL,-17.86666666,-142.55000000,QLD,NULL,NULL,1
904,Strathpark,STRK,NULL,-19.60000000,-143.16666666,QLD,NULL,NULL,1
905,Sudley,YSDL,NULL,-12.71666666,-142.37722222,QLD,NULL,NULL,1
906,Sugar Bag,SUGG,NULL,-17.91666666,-145.00000000,QLD,NULL,NULL,1
907,Sunnymount,YSMT,NULL,-17.40000000,-144.88333333,QLD,NULL,NULL,1
908,Sunnyside,SUNE,NULL,-23.96666666,-143.30000000,QLD,NULL,NULL,1
909,Surat,YSRT,NULL,-27.16666666,-149.08333333,QLD,NULL,NULL,1
910,Surveyors,SURS,NULL,-18.45000000,-141.11666666,QLD,NULL,NULL,1
911,Swan Hill Station,SWAL,NULL,-24.61083333,-145.93972222,QLD,NULL,NULL,1
912,Swanvale,SWAE,NULL,-24.65000000,-143.35000000,QLD,NULL,NULL,1
913,Sweers Island House Boats,SWES,NULL,-17.10000000,-139.63333333,QLD,NULL,NULL,1
914,Sweers Island,YSWE,NULL,-17.12611111,-139.60916666,QLD,NULL,NULL,1
915,Swick West,SWIT,NULL,-19.90000000,-145.63333333,QLD,NULL,NULL,1
916,Sydney International (lic),YSSY,NULL,-33.93555555,-151.16833333,QLD,NULL,NULL,1
917,Taemas,TAES,NULL,-20.06666666,-146.38333333,QLD,NULL,NULL,1
918,Talaroo,TALO,NULL,-18.13333333,-143.96666666,QLD,NULL,NULL,1
919,Talavera,YTVA,NULL,-19.21583333,-143.65222222,QLD,NULL,NULL,1
920,Talawanta,YTLW,NULL,-18.63333333,-140.26666666,QLD,NULL,NULL,1
921,Talbalba,TALA,NULL,-28.98333333,-146.65000000,QLD,NULL,NULL,1
922,Taldora,TALR,NULL,-19.38333333,-141.30000000,QLD,NULL,NULL,1
923,Tambo,YTMB,NULL,-24.83472222,-146.28583333,QLD,NULL,NULL,1
924,Tamworth (lic),YSTW,NULL,-31.08333333,-150.83555555,QLD,NULL,NULL,1
925,Tanbar,TANR,NULL,-25.85611111,-144.93527777,QLD,NULL,NULL,1
926,Tanghalt,TANT,NULL,-25.95000000,-144.81666666,QLD,NULL,NULL,1
927,Tanumbirini Station,YTNR,NULL,-16.45000000,-134.65000000,QLD,NULL,NULL,1
928,Tara,YTAA,NULL,-27.15111111,-150.46833333,QLD,NULL,NULL,1
929,Tarcombe,YTRC,NULL,-24.08333333,-143.40000000,QLD,NULL,NULL,1
930,Taree,YTRE,NULL,-31.88416666,-152.50222222,QLD,NULL,NULL,1
931,Taroom (lic),YTAM,NULL,-25.80027777,-149.90000000,QLD,NULL,NULL,1
932,Tarrina,TARA,NULL,-25.20000000,-146.11666666,QLD,NULL,NULL,1
933,Tarroni,TARI,NULL,-18.96666666,-145.25000000,QLD,NULL,NULL,1
934,Tartrus,YTTS,NULL,-22.93416666,-149.41861111,QLD,NULL,NULL,1
935,Tatala,TATA,NULL,-27.60000000,-146.86666666,QLD,NULL,NULL,1
936,Tawarri,TAWI,NULL,-22.72083333,-149.05250000,QLD,NULL,NULL,1
937,Taylors Plains,YTAP,NULL,-25.68472222,-147.28500000,QLD,NULL,NULL,1
938,Tenham,TENM,NULL,-25.71666666,-143.00000000,QLD,NULL,NULL,1
939,Tennappera,YTEP,NULL,-28.10000000,-141.81666666,QLD,NULL,NULL,1
940,Terraldon,TERN,NULL,-28.88583333,-145.23527777,QLD,NULL,NULL,1
941,Terriboah,TERH,NULL,-24.06666666,-140.06805555,QLD,NULL,NULL,1
942,Texas,TEXS,NULL,-28.83472222,-151.15000000,QLD,NULL,NULL,1
943,Thalmera,YTMA,NULL,-24.65111111,-149.61861111,QLD,NULL,NULL,1
944,Thangool (lic),YTNG,NULL,-24.48500000,-150.56833333,QLD,NULL,NULL,1
945,Thargomindah (lic),YTGM,NULL,-27.98388888,-143.80194444,QLD,NULL,NULL,1
946,The Brook,THEK,NULL,-19.95000000,-145.18333333,QLD,NULL,NULL,1
947,The Lake,THEE,NULL,-22.60083333,-145.66777777,QLD,NULL,NULL,1
948,The Monument,YTMO,NULL,-21.80194444,-139.91777777,QLD,NULL,NULL,1
949,The Nobbies,THES,NULL,-19.83333333,-140.51666666,QLD,NULL,NULL,1
950,The Star,THER,NULL,-19.33333333,-146.16666666,QLD,NULL,NULL,1
951,Theodore,YTDR,NULL,-24.98500000,-150.08500000,QLD,NULL,NULL,1
952,Thorner,THOR,NULL,-21.70000000,-138.48333333,QLD,NULL,NULL,1
953,Thorntonia,THOA,NULL,-19.51666666,-138.93555555,QLD,NULL,NULL,1
954,Three Ways,YBKW1,NULL,-19.21666666,-140.36666666,QLD,NULL,NULL,1
955,Thyangra,THYA,NULL,-28.16666666,-143.41666666,QLD,NULL,NULL,1
956,Thylungra,YTHY,NULL,-26.10000000,-143.46666666,QLD,NULL,NULL,1
957,Ti Tree,YTTE,NULL,-13.98333333,-141.66666666,QLD,NULL,NULL,1
958,Tibooburra (lic),YTIB,NULL,-29.45027777,-142.05111111,QLD,NULL,NULL,1
959,Tick Hill,TICL,NULL,-21.63416666,-139.93444444,QLD,NULL,NULL,1
960,Tickalara Homestead,YTIH,NULL,-28.63333333,-142.16666666,QLD,NULL,NULL,1
961,Tilbooroo,TILO,NULL,-27.75000000,-145.00000000,QLD,NULL,NULL,1
962,Tinderry,TINY,NULL,-27.35000000,-143.90000000,QLD,NULL,NULL,1
963,Tinnenburra,TINA,NULL,-28.71666666,-145.86666666,QLD,NULL,NULL,1
964,Tiree,TIRE,NULL,-21.63333333,-145.11666666,QLD,NULL,NULL,1
965,Tobermorey,YTMY,NULL,-22.25083333,-137.95138888,QLD,NULL,NULL,1
966,Toliness,YTNS,NULL,-25.33333333,-146.06666666,QLD,NULL,NULL,1
967,Tongy,TONY,NULL,-27.35000000,-147.25138888,QLD,NULL,NULL,1
968,Tonkoro,TONO,NULL,-23.95055555,-142.48388888,QLD,NULL,NULL,1
969,Toolebuc,TOOC,NULL,-22.18472222,-140.85250000,QLD,NULL,NULL,1
970,Toolmaree,TOOE,NULL,-25.20000000,-146.35000000,QLD,NULL,NULL,1
971,Toolong,TOOG,NULL,-25.38333333,-145.91666666,QLD,NULL,NULL,1
972,Tooloombilla Homestead,YTOL,NULL,-25.86750000,-148.03500000,QLD,NULL,NULL,1
973,Toomba,YTOB,NULL,-19.93333333,-145.58333333,QLD,NULL,NULL,1
974,Toompine,TOON,NULL,-27.20166666,-144.38472222,QLD,NULL,NULL,1
975,Toorak Research Station,YTKS,NULL,-21.03472222,-141.78388888,QLD,NULL,NULL,1
976,Toowoomba (lic),YTWB,NULL,-27.53500000,-151.91666666,QLD,NULL,NULL,1
977,Torrens Creek,YTCK,NULL,-20.78333333,-145.00000000,QLD,NULL,NULL,1
978,Torres Park Homestead,YTOK,NULL,-25.11666666,-147.16666666,QLD,NULL,NULL,1
979,Torwood,YTRW,NULL,-17.37138888,-143.75277777,QLD,NULL,NULL,1
980,Townsville (raaf/Lic),YBTL,NULL,-19.25055555,-146.75250000,QLD,NULL,NULL,1
981,Trelawney,YTWE,NULL,-22.83527777,-146.71666666,QLD,NULL,NULL,1
982,Trepell,YTEE1,NULL,-21.83361111,-140.88416666,QLD,NULL,NULL,1
983,Tribulation,YCBY,NULL,-16.23111111,-145.42527777,QLD,NULL,NULL,1
984,Trindad,YTII,NULL,-25.60000000,-143.91666666,QLD,NULL,NULL,1
985,Truganinni,YTUG,NULL,-24.48527777,-149.20250000,QLD,NULL,NULL,1
986,Tully,YTUY,NULL,-17.93333333,-145.95000000,QLD,NULL,NULL,1
987,Tully River Station,TULN,NULL,-17.95000000,-145.75000000,QLD,NULL,NULL,1
988,Tumbar Station,TUMN,NULL,-24.01861111,-147.30000000,QLD,NULL,NULL,1
989,Tunis,TUNS,NULL,-25.50027777,-148.15222222,QLD,NULL,NULL,1
990,Turn Turn,TURN,NULL,-28.61666666,-144.78333333,QLD,NULL,NULL,1
991,Tyrone Homestead,TYRD,NULL,-26.10000000,-145.70000000,QLD,NULL,NULL,1
992,Ukalunda,UKAA,NULL,-20.90000000,-147.13333333,QLD,NULL,NULL,1
993,Ulcanbah,YULC,NULL,-22.03333333,-145.98333333,QLD,NULL,NULL,1
994,Ulva,ULVA,NULL,-21.38333333,-145.23333333,QLD,NULL,NULL,1
995,Undara,YUDA,NULL,-18.19583333,-144.61694444,QLD,NULL,NULL,1
996,Undilla Homestead,YUDL,NULL,-19.61833333,-138.61666666,QLD,NULL,NULL,1
997,Urandangi,YUDG,NULL,-21.58444444,-138.35138888,QLD,NULL,NULL,1
998,Vacquera,VACA,NULL,-21.56666666,-146.51666666,QLD,NULL,NULL,1
999,Vale of Dutton,DALH1,NULL,-20.41666666,-143.91666666,QLD,NULL,NULL,1
1000,Valley of Lagoons,YVLG,NULL,-18.68333333,-145.10000000,QLD,NULL,NULL,1
1001,van Lee,VANE,NULL,-17.85000000,-143.70000000,QLD,NULL,NULL,1
1002,Vanrook Station,YVRS,NULL,-16.95222222,-141.95000000,QLD,NULL,NULL,1
1003,Vergemont,VERT,NULL,-23.53333333,-143.01666666,QLD,NULL,NULL,1
1004,Vine Creek,VINK,NULL,-21.33333333,-146.85000000,QLD,NULL,NULL,1
1005,Violet Vale,YVVL,NULL,-14.73333333,-143.59194444,QLD,NULL,NULL,1
1006,Violetvale,VIOE,NULL,-19.70000000,-140.91666666,QLD,NULL,NULL,1
1007,Wagga Wagga (lic),YSWG,NULL,-35.15250000,-147.46666666,QLD,NULL,NULL,1
1008,Wagganba,WAGA,NULL,-27.68333333,-149.43333333,QLD,NULL,NULL,1
1009,Wahroongha,YWAH,NULL,-24.45000000,-144.10000000,QLD,NULL,NULL,1
1010,Wairuna,WAIA,NULL,-18.45000000,-145.30000000,QLD,NULL,NULL,1
1011,Walgett (lic),YWLG,NULL,-30.03416666,-148.11666666,QLD,NULL,NULL,1
1012,Walhallow Station,YWHL,NULL,-17.76666666,-135.65000000,QLD,NULL,NULL,1
1013,Waltham Station,WALN,NULL,-22.45444444,-146.72388888,QLD,NULL,NULL,1
1014,Wambin,WAMN,NULL,-27.16666666,-144.10000000,QLD,NULL,NULL,1
1015,Wandoan,YWNN,NULL,-26.13333333,-149.96666666,QLD,NULL,NULL,1
1016,Wando Vale,YWDV,NULL,-19.67194444,-144.88361111,QLD,NULL,NULL,1
1017,Wandsworth,YWNS,NULL,-25.05000000,-143.66666666,QLD,NULL,NULL,1
1018,Wanggoolba,WANA,NULL,-25.45055555,-152.98527777,QLD,NULL,NULL,1
1019,Warbreccan,YWCN,NULL,-24.30055555,-142.83361111,QLD,NULL,NULL,1
1020,Warden,WARN,NULL,-28.76666666,-144.73333333,QLD,NULL,NULL,1
1021,Wareo,WARO,NULL,-27.21666666,-144.73333333,QLD,NULL,NULL,1
1022,Warra,WARA,NULL,-23.11666666,-140.56666666,QLD,NULL,NULL,1
1023,Warraber Island,YWBS,NULL,-10.21222222,-142.81944444,QLD,NULL,NULL,1
1024,Warrenvale,WARE,NULL,-18.41666666,-140.78333333,QLD,NULL,NULL,1
1025,Warwick,YWCK,NULL,-28.15000000,-151.93500000,QLD,NULL,NULL,1
1026,Watch Hill Plains,WATS,NULL,-19.00000000,-144.55000000,QLD,NULL,NULL,1
1027,Wathanin,YWNI1,NULL,-13.70000000,-141.55000000,QLD,NULL,NULL,1
1028,Watson River,YWTV,NULL,-13.23666666,-142.23666666,QLD,NULL,NULL,1
1029,Wattle Hills,YWAT,NULL,-12.64000000,-143.04777777,QLD,NULL,NULL,1
1030,Watts Bridge,YWSG,NULL,-27.08583333,-152.45166666,QLD,NULL,NULL,1
1031,Waverley Downs,WAVS,NULL,-29.10000000,-143.90000000,QLD,NULL,NULL,1
1032,Weilmoringle,YWMG,NULL,-29.23333333,-146.93333333,QLD,NULL,NULL,1
1033,Weipa (lic),YBWP,NULL,-12.66861111,-141.91805555,QLD,NULL,NULL,1
1034,Welcome,WELE,NULL,-24.55000000,-147.75000000,QLD,NULL,NULL,1
1035,Wellclose,YWEC,NULL,-25.53444444,-145.13583333,QLD,NULL,NULL,1
1036,Wentworth,YWWH,NULL,-22.10000000,-147.70000000,QLD,NULL,NULL,1
1037,Werewilka,WERA,NULL,-28.33333333,-144.40000000,QLD,NULL,NULL,1
1038,Wernadinga,YWER,NULL,-18.13333333,-139.96666666,QLD,NULL,NULL,1
1039,Werrington,YWRS,NULL,-19.31666666,-144.08333333,QLD,NULL,NULL,1
1040,West Wyalong,YWWL,NULL,-33.93388888,-147.18472222,QLD,NULL,NULL,1
1041,Westmoreland,YWML,NULL,-17.33333333,-138.23333333,QLD,NULL,NULL,1
1042,White Hills,WHIS,NULL,-19.50000000,-139.86666666,QLD,NULL,NULL,1
1043,Whitewater,WHIR,NULL,-18.16666666,-144.61666666,QLD,NULL,NULL,1
1044,Whitsunday,YSHR1,NULL,-20.26861111,-148.75111111,QLD,NULL,NULL,1
1045,Wieta,WIEA,NULL,-22.45000000,-148.81666666,QLD,NULL,NULL,1
1046,Wilburra Downs,WILS,NULL,-20.81666666,-143.23333333,QLD,NULL,NULL,1
1047,Wilcannia,YWCA,NULL,-31.51833333,-143.36805555,QLD,NULL,NULL,1
1048,Williamson (lic),YWIS,NULL,-22.46666666,-150.16666666,QLD,NULL,NULL,1
1049,Willows,WILW,NULL,-23.71666666,-147.51666666,QLD,NULL,NULL,1
1050,Windorah,YWDH,NULL,-25.40222222,-142.66666666,QLD,NULL,NULL,1
1051,Winton (lic),YWTN,NULL,-22.35222222,-143.08361111,QLD,NULL,NULL,1
1052,Wiralla,WIRA,NULL,-27.78333333,-144.23333333,QLD,NULL,NULL,1
1053,Wiringa,WIRG,NULL,-25.83333333,-145.73333333,QLD,NULL,NULL,1
1054,Wirralie Gold Mine,YWIE,NULL,-21.11833333,-147.26750000,QLD,NULL,NULL,1
1055,Wittenburra,WITA,NULL,-28.41666666,-144.61666666,QLD,NULL,NULL,1
1056,Wollogorang,YWOR,NULL,-17.22277777,-137.93333333,QLD,NULL,NULL,1
1057,Wombula,WOMA,NULL,-28.31666666,-144.21666666,QLD,NULL,NULL,1
1058,Wondai,YWND,NULL,-26.28333333,-151.85138888,QLD,NULL,NULL,1
1059,Wondoola,YWDL,NULL,-18.56805555,-140.88472222,QLD,NULL,NULL,1
1060,Wongalee,WONE,NULL,-27.33333333,-146.63333333,QLD,NULL,NULL,1
1061,Wongalinji,WONI,NULL,-18.45222222,-137.58333333,QLD,NULL,NULL,1
1062,Woodlands,WOOS,NULL,-27.28333333,-148.11666666,QLD,NULL,NULL,1
1063,Woodstock Station,WOON,NULL,-19.36666666,-142.76666666,QLD,NULL,NULL,1
1064,Woolga,WOOA,NULL,-25.25000000,-145.83333333,QLD,NULL,NULL,1
1065,Woolgar,WOOR,NULL,-19.83333333,-143.36666666,QLD,NULL,NULL,1
1066,Woorabinda,YWBA,NULL,-24.11750000,-149.45166666,QLD,NULL,NULL,1
1067,Wooroona,YWRA,NULL,-20.46666666,-138.20000000,QLD,NULL,NULL,1
1068,Woura,WOUA,NULL,-21.20000000,-144.96666666,QLD,NULL,NULL,1
1069,Wrotham Park,YWMP,NULL,-16.66388888,-144.00833333,QLD,NULL,NULL,1
1070,Wyandotte,YWDT,NULL,-18.75000000,-144.83333333,QLD,NULL,NULL,1
1071,Wyandra,YWYA,NULL,-27.26666666,-145.98444444,QLD,NULL,NULL,1
1072,Wyora,WYOA,NULL,-21.90000000,-143.06666666,QLD,NULL,NULL,1
1073,Yacamunda,YYAC,NULL,-21.38333333,-147.10000000,QLD,NULL,NULL,1
1074,Yakara,YAKA,NULL,-28.36666666,-143.86666666,QLD,NULL,NULL,1
1075,Yalkula,YYAK,NULL,-16.75000000,-145.33333333,QLD,NULL,NULL,1
1076,Yam Island,YYMI,NULL,-9.91027777,-142.78166666,QLD,NULL,NULL,1
1077,Yandan Mine,YADM,NULL,-21.28333333,-146.98333333,QLD,NULL,NULL,1
1078,Yaraka,YYKA,NULL,-24.88500000,-144.06805555,QLD,NULL,NULL,1
1079,Yarrabee Mine,YYBE,NULL,-23.26666666,-149.00000000,QLD,NULL,NULL,1
1080,Yarraden,YYDN,NULL,-14.30555555,-143.31833333,QLD,NULL,NULL,1
1081,Yarrowmere,YYME,NULL,-21.45000000,-145.86666666,QLD,NULL,NULL,1
1082,Yeldham,YELM,NULL,-18.61805555,-139.01750000,QLD,NULL,NULL,1
1083,Yellow Waterhole,YELE,NULL,-28.26666666,-143.80000000,QLD,NULL,NULL,1
1084,Yellowbank Junction,YYLL,NULL,-25.43555555,-148.45000000,QLD,NULL,NULL,1
1085,Yelvertoft,YELT,NULL,-20.21666666,-138.88333333,QLD,NULL,NULL,1
1086,Yenloora,YENA,NULL,-28.41722222,-144.16666666,QLD,NULL,NULL,1
1087,Yeppera,YYRA,NULL,-26.10250000,-142.86888888,QLD,NULL,NULL,1
1088,Yo Yo Park,YOYK,NULL,-26.01666666,-146.76666666,QLD,NULL,NULL,1
1089,Yorke Island,YYKI,NULL,-9.75611111,-143.40611111,QLD,NULL,NULL,1
1090,Yowah,YYWA,NULL,-27.95444444,-144.63472222,QLD,NULL,NULL,1
1091,Zenonie,ZENE,NULL,-28.53333333,-143.80000000,QLD,NULL,NULL,1
1092,Ampilatwatja Station,YAMJ,NULL,-21.65083333,-135.21888888,QLD,NULL,NULL,1
1093,Bow Park Station,BOWK,NULL,-20.01666666,-141.91666666,QLD,NULL,NULL,1
1094,Whyalla Feedlot,YWYL,NULL,-28.75250000,-151.03444444,QLD,NULL,NULL,1
1095,Emere,EMEE,NULL,-22.50000000,-145.91666666,QLD,NULL,NULL,1
1096,Richmond,YRIC,NULL,-33.60000000,-150.78833333,QLD,NULL,NULL,1
1097,Marqua Station,YMQA,NULL,-22.80111111,-137.25027777,QLD,NULL,NULL,1
1098,Ethabuka Reserve,Ethe,NULL,-23.86666666,-138.50416666,QLD,NULL,NULL,1
1099,Yallara,YALR,NULL,-26.92500000,-145.81000000,QLD,NULL,NULL,1
1100,LYNORA DOWNS,LYNS,NULL,-24.61666666,-148.65000000,QLD,NULL,NULL,1
1101,BEECH FACTORY - WICHITA,KBEC,NULL,37.68527777,97.20250000,QLD,NULL,NULL,1
1102,Hutchinson - Kansas,KHUT,NULL,38.05250000,97.85166666,QLD,NULL,NULL,1
1103,Colonel Jabara - Wichita,KAAO,NULL,37.73583333,97.21750000,QLD,NULL,NULL,1
1104,Goose Bay,CYYR,NULL,53.31722222,60.41833333,QLD,NULL,NULL,1
1105,Toronto,CYYZ,NULL,43.66833333,79.61888888,QLD,NULL,NULL,1
1106,Reykjavik,BIRK,NULL,64.11888888,21.93444444,QLD,NULL,NULL,1
1107,Prestwick,EGPK,NULL,55.50166666,-4.58527777,QLD,NULL,NULL,1
1108,Pisa,LIRP,NULL,43.68333333,-10.38527777,QLD,NULL,NULL,1
1109,Cairo,HECA,NULL,30.10111111,-31.40222222,QLD,NULL,NULL,1
1110,Muscat,OOMS,NULL,23.58500000,-58.26916666,QLD,NULL,NULL,1
1111,Bangalore,VOBG,NULL,12.95027777,-77.65250000,QLD,NULL,NULL,1
1112,Phuket,VTSP,NULL,8.10222222,-98.30166666,QLD,NULL,NULL,1
1113,Seletar,WSSL,NULL,1.41666666,-106.86694444,QLD,NULL,NULL,1
1114,Denpasar - Bali,WADD,NULL,-8.73555555,-115.16694444,QLD,NULL,NULL,1
1115,Newton,KEWK,NULL,38.05111111,97.26805555,QLD,NULL,NULL,1
1116,Essendon,YMEN,NULL,-37.71861111,-144.90027777,QLD,NULL,NULL,1
1117,Montana,Mona,NULL,-25.60777777,-148.79583333,QLD,NULL,NULL,1
1118,CANBERRA,YSCB,NULL,35.30111111,-149.18527777,QLD,NULL,NULL,1
1119,ZIG ZAG STATION,ZIGG,NULL,-19.12833333,-145.83972222,QLD,NULL,NULL,1
1120,Gilberton Station,GILN,NULL,-19.21583333,-143.65222222,QLD,NULL,NULL,1
1121,Leinster,LEIR,NULL,-26.92611111,-147.43944444,QLD,NULL,NULL,1
1122,Byra,BYRA,NULL,-28.96666666,-147.21666666,QLD,NULL,NULL,1
1123,Comely Station,COMN,NULL,-24.95055555,-149.08472222,QLD,NULL,NULL,1
1124,Springvale Station (Clermont),SPRN,NULL,-22.76861111,-146.95194444,QLD,NULL,NULL,1
1125,Wrotham Park Resort,YWMR,NULL,-16.50833333,-143.73055555,QLD,NULL,NULL,1
1126,Chuulangun,Chun,NULL,-13.11833333,-143.00027777,QLD,NULL,NULL,1
1127,Herbertvale Station,Hern,NULL,-18.95000000,-138.03500000,QLD,NULL,NULL,1
1128,Eldwick Station,ELDK,NULL,-24.40111111,-142.73388888,QLD,NULL,NULL,1
1129,Olney Park,OLNK,NULL,-24.51694444,-150.00166666,QLD,NULL,NULL,1
1130,GLENDON DOWNS,GLES,NULL,-21.31888888,-148.08500000,QLD,NULL,NULL,1
1131,Wichita - Mid Continent,KICT,NULL,39.00555555,25.98333333,QLD,NULL,NULL,1
1132,Quebec,CYQB,NULL,46.79111111,71.39333333,QLD,NULL,NULL,1
1133,Bournemouth,EGHH,NULL,50.78000000,1.84250000,QLD,NULL,NULL,1
1134,Luxor,HELX,NULL,25.67083333,-32.70638888,QLD,NULL,NULL,1
1135,Athens,LGAV,NULL,37.93611111,-23.94444444,QLD,NULL,NULL,1
1136,MYOLA,MYOA,NULL,-20.04194444,-145.52138888,QLD,NULL,NULL,1
1137,Gander,Cyqx,NULL,48.93388888,54.56694444,QLD,NULL,NULL,1
1138,Deer Lake,CYDF,NULL,49.20194444,57.38472222,QLD,NULL,NULL,1
1139,Brindisi,LIBR,NULL,40.65750000,-17.94694444,QLD,NULL,NULL,1
1140,Dry River,YDRV,NULL,-18.76777777,-144.68416666,QLD,NULL,NULL,1
1141,Moothandella Emergency Road Strip,MOOD,NULL,-25.59638888,-143.00861111,QLD,NULL,NULL,1
1142,Alpurrurulam Community Airstrip,YALP,NULL,-20.98972222,-137.83611111,QLD,NULL,NULL,1
1143,WILLIAMTOWN,YWLM,NULL,-32.78527777,-151.83361111,QLD,NULL,NULL,1
1144,Inglewood,YILW,NULL,-28.41666666,-151.08333333,QLD,NULL,NULL,1
1145,Mckinlay Emergency Roadstrip,Mckd,NULL,-21.23444444,-141.30138888,QLD,NULL,NULL,1
1146,Pungalina,YPUG,NULL,-16.71750000,-137.41750000,QLD,NULL,NULL,1
1147,Jericho,YJRO,NULL,-23.58333333,-146.16666666,QLD,NULL,NULL,1
1148,Darrawong,Darg,NULL,-28.76666666,-146.66666666,QLD,NULL,NULL,1
1149,Redcliffe,YRED,NULL,-27.20111111,-153.06694444,QLD,NULL,NULL,1
1150,Waterview Station,WATN,NULL,-25.58500000,-148.80555555,QLD,NULL,NULL,1
1151,Daru International,AYDU,NULL,-9.08694444,-143.20777777,QLD,NULL,NULL,1
1152,Fermoy,FERY,NULL,-28.67472222,-145.53472222,QLD,NULL,NULL,1
1153,QUILPETA,QUIA,NULL,-27.11805555,-145.06916666,QLD,NULL,NULL,1
1154,Oslo,ENGM,NULL,60.20055555,-11.08333333,QLD,NULL,NULL,1
1155,Warsaw,EPWA,NULL,52.15250000,-20.96666666,QLD,NULL,NULL,1
1156,Iraklion,LGIR,NULL,35.33444444,-25.16888888,QLD,NULL,NULL,1
1157,Hurghada,HEGN,NULL,27.16861111,-33.80027777,QLD,NULL,NULL,1
1158,Bangalore,VOBL,NULL,13.18583333,-77.70083333,QLD,NULL,NULL,1
1159,Broome,YBRM,NULL,-17.95000000,-122.21861111,QLD,NULL,NULL,1
1160,KINGFISHER CAMP,KINP,NULL,-17.85972222,-138.29194444,QLD,NULL,NULL,1
1161,Dry Creek,Dryk,NULL,-17.75166666,-137.80027777,QLD,NULL,NULL,1
1162,Alice River Station,Alir,NULL,-15.40000000,-143.30000000,QLD,NULL,NULL,1
1163,Bendigo,YBDG,NULL,-36.73444444,-144.31888888,QLD,NULL,NULL,1
1164,BRAMWELL STATION,BRAN,NULL,-12.13444444,-142.60222222,QLD,NULL,NULL,1
1165,Winneba,WINA,NULL,-26.02083333,-147.37083333,QLD,NULL,NULL,1
1166,Carwell Outstation,CARW,NULL,-24.75583333,-146.77861111,QLD,NULL,NULL,1
1167,WOLLONGONG,YWOL,NULL,-34.55194444,-150.78416666,QLD,NULL,NULL,1
1168,"Salina Municipal Aircrat, Kansas Usa",KSLN,NULL,37.79083333,970.65222222,QLD,NULL,NULL,1
1169,Southend Airport,EGMC,NULL,0.70138888,-51.57277777,QLD,NULL,NULL,1
1170,Rome Ciampino Airport,LIRA,NULL,41.79944444,-12.59722222,QLD,NULL,NULL,1
1171,Birmingham Airport,EGBB,NULL,52.45388888,1.74805555,QLD,NULL,NULL,1
1172,Bulloo Lakes,BULS,NULL,-25.47722222,-144.63555555,QLD,NULL,NULL,1
1173,Rocklands (Clermont Area),ROCS,NULL,-22.90000000,-147.55138888,QLD,NULL,NULL,1
1174,BOOBERA,BOOB,NULL,-27.57444444,-145.29861111,QLD,NULL,NULL,1
1175,Lady Loretta,LADA,NULL,-19.78333333,-139.03583333,QLD,NULL,NULL,1
1176,CUNGELELLA,YCGL,NULL,-24.68333333,-147.18333333,QLD,NULL,NULL,1
1177,Merapah Homestead (Merepah Or Meripah),MERD,NULL,-13.78361111,-142.53555555,QLD,NULL,NULL,1
1178,Avoca Station,Avoa,NULL,-23.96666666,-147.06666666,QLD,NULL,NULL,1
1179,Little Wonder,LITR,NULL,-26.60000000,-142.78138888,QLD,NULL,NULL,1
1180,Caranna Station,CARZ,NULL,-25.40083333,-145.35083333,QLD,NULL,NULL,1
1181,MIMONG STATION,MIMN,NULL,-21.40222222,-141.98416666,QLD,NULL,NULL,1
1182,Moama,Moaa,NULL,-27.55138888,-144.85055555,QLD,NULL,NULL,1
1183,Dutton River Station,Dutn,NULL,-20.28527777,-143.86750000,QLD,NULL,NULL,1
1184,WILD RICE LAGOON,WILN,NULL,-17.28972222,-142.15388888,QLD,NULL,NULL,1
1185,Herbertvale Cattleyard,Herd,NULL,-18.95000000,-138.03500000,QLD,NULL,NULL,1
1186,Gove,Ypgv,NULL,-12.26722222,-136.81694444,QLD,NULL,NULL,1
1187,Baikal,YIKL,NULL,-22.76666666,-136.15138888,QLD,NULL,NULL,1
1188,Rollo Station,ROLN,NULL,-27.96833333,-146.68527777,QLD,NULL,NULL,1
1189,Eva Downs,EVAS,NULL,-18.01388888,-134.87500000,QLD,NULL,NULL,1
1190,Kiaora,KIAR,NULL,-28.08361111,-148.55027777,QLD,NULL,NULL,1
1191,Ada,Zada,NULL,-22.31694444,-141.88361111,QLD,NULL,NULL,1
1192,Tarlton Downs,Ytlt,NULL,-22.63333333,-136.81194444,QLD,NULL,NULL,1
1193,CLIFTON STATION,CLIN,NULL,-25.65138888,-143.18416666,QLD,NULL,NULL,1
1194,No 11 Bore Lake Nash Station,Boro,NULL,-21.16250000,-137.29722222,QLD,NULL,NULL,1
1195,Potjostler Outstation,Potn,NULL,-23.05972222,-140.99361111,QLD,NULL,NULL,1
1196,Islay Plains Station,Isln,NULL,-23.00333333,-146.01472222,QLD,NULL,NULL,1
1197,PRAIRIE - TL AREA,PRAI,NULL,-20.86722222,-144.58388888,QLD,NULL,NULL,1
1198,Birdsville Emergency Road Strip,Bdvd,NULL,-25.75250000,-139.81694444,QLD,NULL,NULL,1
1199,Birdsville East Emergency Road Strip,Bdve,NULL,-25.68500000,-141.20194444,QLD,NULL,NULL,1
1200,TENNANT CREEK,YTNK,NULL,-19.63361111,-134.18333333,QLD,NULL,NULL,1
1201,Southampton,SOUO,NULL,-27.57694444,-147.75916666,QLD,NULL,NULL,1
1202,Brisbane West Wellcamp,YBWW,NULL,-27.55138888,-151.78500000,QLD,NULL,NULL,1
1203,Dugald River Mine Emergency Road Strip,Dugp,NULL,-20.26777777,-140.21805555,QLD,NULL,NULL,1
1204,Rajiv Gandhi International Airport,VOHS,NULL,17.22861111,-78.43277777,QLD,NULL,NULL,1
1205,Shah Amanat International Airport,VGEG,NULL,91.81333333,-91.81333333,QLD,NULL,NULL,1
1206,U-Taphao International Airport,VTBU,NULL,10.16694444,-12.68000000,QLD,NULL,NULL,1
1207,Lombok International Airport,WADL,NULL,-8.76222222,-116.28333333,QLD,NULL,NULL,1
1208,Agincourt Reef,YAGR,NULL,NULL,NULL,Queensland,Australia,NULL,3
1209,Bulwer,YXBU,NULL,NULL,NULL,Queensland,Australia,NULL,3
1210,Cungulla,YCUL,NULL,NULL,NULL,Queensland,Australia,NULL,3
1211,Deloraine Island,YDLR,NULL,NULL,NULL,Queensland,Australia,NULL,3
1212,Enoggera Barracks,YENO,NULL,NULL,NULL,Queensland,Australia,NULL,3
1213,Flinders Island (Qld),YFNI,NULL,NULL,NULL,Queensland,Australia,NULL,3
1214,Gwinganna,YGWG,NULL,NULL,NULL,Queensland,Australia,NULL,3
1216,Lamb Island,YXLM,NULL,NULL,NULL,Queensland,Australia,NULL,3
1217,Long Island,YLOI,NULL,NULL,NULL,Queensland,Australia,NULL,3
1218,Mackay Base Hospital,YMHP,NULL,NULL,NULL,Queensland,Australia,NULL,3
1219,Maclay Island,YXMC,NULL,NULL,NULL,Queensland,Australia,NULL,3
1220,Mater Hospital,YMAT,NULL,NULL,NULL,Queensland,Australia,NULL,3
1221,Mona Mona,YMAM,NULL,NULL,NULL,Queensland,Australia,NULL,3
1222,Mt Cootha,YMOH,NULL,NULL,NULL,Queensland,Australia,NULL,3
1223,Natural Arch,YXNT,NULL,NULL,NULL,Queensland,Australia,NULL,3
1224,Nelly Bay,YNEY,NULL,NULL,NULL,Queensland,Australia,NULL,3
1225,Old Brisbane,YOBA,NULL,NULL,NULL,Queensland,Australia,NULL,3
1226,Oreillys,YXOR,NULL,NULL,NULL,Queensland,Australia,NULL,3
1227,Oxley Police Academy,YOXL,NULL,NULL,NULL,Queensland,Australia,NULL,3
1228,Paradise Palms,YPAE,NULL,NULL,NULL,Queensland,Australia,NULL,3
1229,Pittsworth,YPWH,NULL,NULL,NULL,Queensland,Australia,NULL,3
1230,Point Lookout,YPLT,NULL,NULL,NULL,Queensland,Australia,NULL,3
1231,Prince Charles Hospital,YPRC,NULL,NULL,NULL,Queensland,Australia,NULL,3
1232,Princess Alexandra Hospital,YPRI,NULL,NULL,NULL,Queensland,Australia,NULL,3
1233,Ravenshoe,YRVO,NULL,NULL,NULL,Queensland,Australia,NULL,3
1235,Sandy Cape (Qld),YSYC,NULL,NULL,NULL,Queensland,Australia,NULL,3
1236,Seaworld,YSWD,NULL,NULL,NULL,Queensland,Australia,NULL,3
1237,Skysafari Base,YSSP,NULL,NULL,NULL,Queensland,Australia,NULL,3
1238,Tamborine Mt,YXTM,NULL,NULL,NULL,Queensland,Australia,NULL,3
1239,Tangalooma Resort,YXTA,NULL,NULL,NULL,Queensland,Australia,NULL,3
1240,Thursday Island,YTUD,NULL,NULL,NULL,Queensland,Australia,NULL,3
1241,Whytes Island,YWHY,NULL,NULL,NULL,Queensland,Australia,NULL,3
1242,Wujal,YWJL,NULL,NULL,NULL,Queensland,Australia,NULL,3
1243,Yarrabah,YYBH,NULL,NULL,NULL,Queensland,Australia,NULL,3
1244,[X] Terang,YTEA,NULL,NULL,NULL,Queensland,Australia,NULL,3
1245,[X] Bromelton,YBML,NULL,NULL,NULL,Queensland,Australia,NULL,3
1246,Dulacca,YDLC,NULL,NULL,NULL,Queensland,Australia,NULL,3
1247,Gunpowder,YGPR,NULL,NULL,NULL,Queensland,Australia,NULL,3
1248,Hillgrove,YHLG,NULL,NULL,NULL,Queensland,Australia,NULL,3
1249,Herberton,YHTN,NULL,NULL,NULL,Queensland,Australia,NULL,3
1250,Jacobs Well,YJCW,NULL,NULL,NULL,Queensland,Australia,NULL,3
1251,Kingfisher Camp,YKFC,NULL,NULL,NULL,Queensland,Australia,NULL,3
1252,Lindeman Island,YLIN,LDC,NULL,NULL,Queensland,Australia,NULL,3
1253,Lansdowne,YLSS,NULL,NULL,NULL,Queensland,Australia,NULL,3
1254,Laverak (Military),YLVK,NULL,NULL,NULL,Queensland,Australia,NULL,3
1255,Navarra,YNVR,NULL,NULL,NULL,Queensland,Australia,NULL,3
1256,Omicron Station,YOMI,NULL,NULL,NULL,Queensland,Australia,NULL,3
1257,Tanbar,YTNB,NULL,NULL,NULL,Queensland,Australia,NULL,3
1258,Wirralie,YWRE,NULL,NULL,NULL,Queensland,Australia,NULL,3
1259,Royal Brisbane Hospital Helipad Charlie,YRBH,NULL,NULL,NULL,Queensland,Australia,NULL,3
1260,Daydream Island Helipad,YDDI,NULL,NULL,NULL,Queensland,Australia,NULL,3
1261,Gold Coast Life Saver Base,YGCL,NULL,NULL,NULL,Queensland,Australia,NULL,3
1262,Happy Valley Heliport,YHPY,NULL,NULL,NULL,Queensland,Australia,NULL,3
1263,Hayman Island Heliport,YHYN,NULL,NULL,NULL,Queensland,Australia,NULL,3
1264,Palmyra Airstrip,YPYA,NULL,NULL,NULL,Queensland,Australia,NULL,3
1265,Sikorsky Helitech Heliport,YTEK,NULL,NULL,NULL,Queensland,Australia,NULL,3
1266,Bundaberg Base Hospital Helipad,YXBD,NULL,NULL,NULL,Queensland,Australia,NULL,3
1267,Biggenden Hospital Helipad,YXBI,NULL,NULL,NULL,Queensland,Australia,NULL,3
1268,Beaudesert Hospital Helipad,YXBS,NULL,NULL,NULL,Queensland,Australia,NULL,3
1269,Bowen Hospital Helipad,YXBW,NULL,NULL,NULL,Queensland,Australia,NULL,3
1270,Carnungra-Moriarity Park HLS,YXCA,NULL,NULL,NULL,Queensland,Australia,NULL,3
1271,Cherbourg Hospital Helipad,YXCH,NULL,NULL,NULL,Queensland,Australia,NULL,3
1272,Chinchilla Hospital Helipad,YXCI,NULL,NULL,NULL,Queensland,Australia,NULL,3
1273,Cunningham Gap Helipad,YXCU,NULL,NULL,NULL,Queensland,Australia,NULL,3
1274,Collinsville Hospital Helipad,YXCV,NULL,NULL,NULL,Queensland,Australia,NULL,3
1275,Dalby Hospital Helipad,YXDA,NULL,NULL,NULL,Queensland,Australia,NULL,3
1276,Munduberra Hospital Helipad,YXDR,NULL,NULL,NULL,Queensland,Australia,NULL,3
1277,Dunwich Hospital Helipad,YXDU,NULL,NULL,NULL,Queensland,Australia,NULL,3
1278,Dysart Hospital Helipad,YXDY,NULL,NULL,NULL,Queensland,Australia,NULL,3
1279,Eidsvold Hospital Helipad,YXEI,NULL,NULL,NULL,Queensland,Australia,NULL,3
1280,Esk Hospital Helipad,YXES,NULL,NULL,NULL,Queensland,Australia,NULL,3
1281,Gatton Showgrounds Helicopter Landing Site,YXGA,NULL,NULL,NULL,Queensland,Australia,NULL,3
1282,Gayndah Hospital Helipad,YXGI,NULL,NULL,NULL,Queensland,Australia,NULL,3
1283,Goondiwindi Hospital Helipad,YXGO,NULL,NULL,NULL,Queensland,Australia,NULL,3
1284,Archery Park Helipad,YXGY,NULL,NULL,NULL,Queensland,Australia,NULL,3
1285,Hervey Bay Hospital Helipad,YXHE,NULL,NULL,NULL,Queensland,Australia,NULL,3
1286,Gold Coast University Hospital Helipad,YXHG,NULL,NULL,NULL,Queensland,Australia,NULL,3
1287,Inglewood Hospital Helipad,YXIW,NULL,NULL,NULL,Queensland,Australia,NULL,3
1288,Jandowae Hospital Heliport,YXJN,NULL,NULL,NULL,Queensland,Australia,NULL,3
1289,Laidley Hospital Helipad,YXLA,NULL,NULL,NULL,Queensland,Australia,NULL,3
1290,Caboolture Hospital Helipad,YXLT,NULL,NULL,NULL,Queensland,Australia,NULL,3
1291,Murgon Hospital Helipad,YXMG,NULL,NULL,NULL,Queensland,Australia,NULL,3
1292,Nambour Hospital Helipad,YXNA,NULL,NULL,NULL,Queensland,Australia,NULL,3
1293,Nepean Hospital Helipad,YXNE,NULL,NULL,NULL,Queensland,Australia,NULL,3
1294,Nanango Hospital Helipad,YXNN,NULL,NULL,NULL,Queensland,Australia,NULL,3
1295,Noosa Hospital Helipad,YXNO,NULL,NULL,NULL,Queensland,Australia,NULL,3
1296,Nowra Hospital Helipad,YXNW,NULL,NULL,NULL,Queensland,Australia,NULL,3
1297,Pindarra Hospital Helipad,YXPI,NULL,NULL,NULL,Queensland,Australia,NULL,3
1298,Proserpine Hospital Helipad,YXPN,NULL,NULL,NULL,Queensland,Australia,NULL,3
1299,Unknown,Y???,NULL,NULL,NULL,QLD,NULL,NULL,1
1300,Scene,SCENE,NULL,NULL,NULL,QLD,Australia,NULL,1
1301,Event,EVENT,NULL,NULL,NULL,QLD,Australia,NULL,1
